NAME,DESCRIPTION,ADDRESSPOSTALCODE,ADDRESSSTREETNAME,Lat,Lng,ICON_NAME
PCF Sparkletots Preschool @ Yio Chu Kang Blk 644 (KN),Kindergartens,560644,644 Ang Mo Kio Ave 4  #01-850 S(560644),1.37914986025815,103.840938202791,school.gif
PCF Sparkletots Preschool @ Yuhua Blk 251 (KN),Kindergartens,600251,251 Jurong East Street 24 Blk 247 #01-110 S(600251),1.3431658462769,103.739676495164,school.gif
PCF Sparkletots Preschool @ Yuhua Blk 317 (KN),Kindergartens,600317,317 Jurong East Street 31  #01-14 S(600317),1.3465496871593,103.730965105747,school.gif
PCF Sparkletots Preschool @ Zhenghua Blk 455A (KN),Kindergartens,671455,455A Segar Road  #01-01 S(671455),1.38756735469633,103.771212196176,school.gif
PCF Sparkletots Preschool @ Zhenghua Blk 528 (KN),Kindergartens,670528,"528 Jelapang Road Blk 526, 532 #01-79 S(670528)",1.3850490792297,103.765543454608,school.gif
PCF Sparkletots Preschool @ Zhenghua Blk 620 (KN),Kindergartens,670620,"620 Bukit Panjang Ring Road Blk 615, 619 #01-828 S(670620)",1.38585557651557,103.761737463992,school.gif
PCF SPARKLETOTS PRESCHOOL@KOLAM AYER BLK 8 (DS),Kindergartens,380008,"8, UPPER BOON KENG ROAD, #01 - 03, MULTI STOREY CAR PARK, SINGAPORE 380008",1.31270729273679,103.870690589283,school.gif
Pearlbank Montessori Kindergarten,Kindergartens,118643,302 Pasir Panjang Road   S(118643),1.28750745504731,103.779791668869,school.gif
Pentecost Methodist Church Kindergarten,Kindergartens,519420,4 Pasir Ris Drive 6   S(519420),1.37125662209935,103.95714981437,school.gif
Pibos Garden Preschool,Kindergartens,299574,1 Dunearn Close   S(299574),1.32366004578561,103.814594827163,school.gif
Pink Tower Montessori,Kindergartens,423731,252 Tembeling Road  #01-07 S(423731),1.30646586299788,103.905318259837,school.gif
Putra - Putri Kindergarten,Kindergartens,730408,408 Woodlands Street 41   S(730408),1.42885252458878,103.772369187339,school.gif
Quayside Isle Preparatory School,Kindergartens,098375,31 Ocean Way  #01-17 S(098375),1.2477586231673,103.84192109147,school.gif
Queenstown Good Shepherd Kindergarten,Kindergartens,149454,2 Dundee Road   S(149454),1.29508500074892,103.80731736948,school.gif
Raffles Montessori Kindergarten (Aljunied),Kindergartens,388375,46 Lorong 23 Geylang Fansida Building #04-46C S(388375),1.31522653397246,103.88144706752,school.gif
Raffles Montessori Kindergarten (Still Road),Kindergartens,425080,105 Lorong Stangee   S(425080),1.30984715854568,103.907760970253,school.gif
Ramakrishna Mission Sarada Kindergarten,Kindergartens,539784,179 Bartley Road   S(539784),1.34372407111213,103.879498778206,school.gif
Repton Schoolhouse,Kindergartens,159971,321 Alexandra Road   #03-11   S(159971),1.28747707518844,103.805253386065,school.gif
Repton Schoolhouse Bukit Timah,Kindergartens,289758,"70 Bukit Tinggi Road, The Institution of Engineers, Singapore 289758",1.34517787844111,103.790537164744,school.gif
Ripples Montessori Kindergarten,Kindergartens,488676,10 Jalan Pari Burong Picardy Garden  S(488676),1.33354282355609,103.948154514457,school.gif
Riverlife Kindergarten,Kindergartens,509026,6 Loyang Besar Close   S(509026),1.37836825105585,103.957785396157,school.gif
Seeds D' Learning House,Kindergartens,423731,252 Tembeling Road  #02-07 S(423731),1.30646586299788,103.905318259837,school.gif
Sengkang Methodist Children Centre,Kindergartens,545056,31 Anchorvale Road   S(545056),1.3922202253184,103.886426502071,school.gif
Shalom Kindergarten,Kindergartens,509025,4 Loyang Besar Close   S(509025),1.37843836112564,103.958174532449,school.gif
Singapore Hokkien Huay Kuan Pre-School,Kindergartens,466781,5 Sennett Road   S(466781),1.3156366867206,103.938413823548,school.gif
SKOOL4KIDZ CENTRE (DS),Kindergartens,752128,"128B, CANBERRA STREET, #01 - 530, EASTCROWN @ CANBERRA, SINGAPORE 752128",1.44514888285651,103.833925662064,school.gif
Soka Kindergarten,Kindergartens,528888,7 Tampines Street 92   S(528888),1.34463290496078,103.943349428312,school.gif
Sri Sathya Sai Kindergarten,Kindergartens,510716,716 Pasir Ris St 72  #01-09 S(510716),1.38310156402033,103.93673258097,school.gif
St. Hilda's Church Kindergarten,Kindergartens,429740,83 Ceylon Road   S(429740),1.30780886537826,103.900785598733,school.gif
St. James' Church Kindergarten,Kindergartens,267828,1 Leedon Road   S(267828),1.31286096637294,103.796123266478,school.gif
St. James' Church Kindergarten (Gilstead),Kindergartens,309070,25 Gilstead Road   S(309070),1.31669293009592,103.838323725375,school.gif
St. James' Church Kindergarten (Harding),Kindergartens,249537,29 Harding Road   S(249537),1.30444956358397,103.812222955725,school.gif
St. Paul's Church Kindergarten,Kindergartens,534682,839 Upper Serangoon Road   S(534682),1.35857807983784,103.881854278856,school.gif
Summer Montessori,Kindergartens,618593,21 Yung Ho Road The Agape #01-04 S(618593),1.32696553373981,103.724646634457,school.gif
Sunshine Kindergarten (Watten),Kindergartens,267217,70 Namly Place Shamrock Park  S(267217),1.32415657475007,103.796801116643,school.gif
PCF Sparkletots Preschool @ Sengkang Central Blk 231 (DS),Kindergartens,540231,231 Compassvale Walk Blk 232 #01-436 S(540231),1.38914379635486,103.901353499076,school.gif
PCF Sparkletots Preschool @ Sengkang Central Blk 292B (KN),Kindergartens,542292,292B Compassvale Street  #01-206 S(542292),1.39539858786067,103.898745036855,school.gif
PCF Sparkletots Preschool @ Sengkang South Blk 452 (DS),Kindergartens,530452,"452 Hougang Avenue 10 Blk 45, 451 #01-575 S(530452)",1.3784914423889,103.896307995728,school.gif
PCF Sparkletots Preschool @ Sengkang South Blk 535 (DS),Kindergartens,530535,535 Hougang Street 52 Blk 542 #01-18 S(530535),1.37644173875212,103.890133776807,school.gif
PCF Sparkletots Preschool @ Sengkang West Blk 330A (DS),Kindergartens,541330,330A Anchorvale Street  #01-519 S(541330),1.39662722834563,103.889865436032,school.gif
PCF Sparkletots Preschool @ Sengkang West Blk 416A (DS),Kindergartens,791416,416A Fernvale Link Blk 415A #01-106 S(791416),1.39061196174241,103.879963567349,school.gif
PCF Sparkletots Preschool @ Serangoon Blk 125 (KN),Kindergartens,550125,125 Serangoon North Avenue 1  #01-133 S(550125),1.36645062466247,103.872110841071,school.gif
PCF Sparkletots Preschool @ Serangoon Blk 226 (KN),Kindergartens,550226,226 Serangoon Avenue 4  #01-149 S(550226),1.35682204868595,103.870855823643,school.gif
PCF Sparkletots Preschool @ Siglap Blk 170 (KN),Kindergartens,460170,170 Bedok South Road  #01-354 S(460170),1.32072009894001,103.946111071896,school.gif
PCF Sparkletots Preschool @ Taman Jurong Blk 352 (DS),Kindergartens,610352,352 Kang Ching Road Blk 355 #01-71 S(610352),1.33936578311752,103.720184389053,school.gif
PCF Sparkletots Preschool @ Tampines Central Blk 725 (DS),Kindergartens,520725,"725 Tampines Street 71 Blk 726, 86 #01-179 S(520725)",1.3569845022809,103.935334498647,school.gif
PCF Sparkletots Preschool @ Tampines Central Blk 856 (KN),Kindergartens,520856,856 Tampines Street 82 Blk 854 #01-279 S(520856),1.35344323889156,103.936557639581,school.gif
PCF Sparkletots Preschool @ Tampines Central Blk 868A (KN),Kindergartens,520868,868A Tampines Avenue 8  #01-534 S(520868),1.35477615923053,103.933979621553,school.gif
PCF Sparkletots Preschool @ Tampines East Blk 261 (KN),Kindergartens,520261,261 Tampines Street 21  #01-300 S(520261),1.35430348301925,103.950965479305,school.gif
PCF Sparkletots Preschool @ Tampines East Blk 262 (DS),Kindergartens,520262,262 Tampines Street 21  #01-272 S(520262),1.35375663739036,103.950970405822,school.gif
PCF Sparkletots Preschool @ Tampines North Blk 483 (KN),Kindergartens,520483,483 Tampines Street 43  #01-202 S(520483),1.36143339610089,103.952685913395,school.gif
PCF Sparkletots Preschool @ Tampines West Blk 140 (DS),Kindergartens,520140,140 Tampines Street 12 Blk 938 #01-426 S(520140),1.34755779198494,103.943814803455,school.gif
PCF Sparkletots Preschool @ Tampines-Changkat Blk 106 (DS),Kindergartens,521106,106 Tampines Street 11  #01-333 S(521106),1.34753917636957,103.947675434971,school.gif
PCF Sparkletots Preschool @ Marsiling Blk 32 (KN),Kindergartens,730032,32 Marsiling Drive Blk 3 #01-343 S(730032),1.44337609505476,103.772918125345,school.gif
PCF Sparkletots Preschool @ Moulmein-Cairnhill Blk 10 (DS),Kindergartens,210010,10 Gloucester Road Blk 52 #01-33 S(210010),1.31391658403565,103.852209772221,school.gif
PCF Sparkletots Preschool @ Mountbatten Blk 51 (KN),Kindergartens,390051,51 Old Airport Road  #02-01 S(390051),1.30810981335455,103.885731691492,school.gif
PCF Sparkletots Preschool @ Nanyang Blk 934 (KN),Kindergartens,640934,934 Jurong West Street 91  #01-329 S(640934),1.34223794158475,103.688737681877,school.gif
PCF Sparkletots Preschool @ Nee Soon Central Blk 646 (DS),Kindergartens,760646,646 Yishun Street 61 Blk 644 #01-354 S(760646),1.42211202299165,103.837491394187,school.gif
PCF Sparkletots Preschool @ Nee Soon Central Blk 737 (KN),Kindergartens,760737,737 Yishun Street 72  #01-99 S(760737),1.42897509015293,103.832444561184,school.gif
PCF Sparkletots Preschool @ Nee Soon East Blk 223 (KN),Kindergartens,760223,223 Yishun St 21 Blk 225 #01-520 S(760223),1.43436726615481,103.83560269,school.gif
PCF Sparkletots Preschool @ Nee Soon East Blk 367 (EY),Kindergartens,760367,367 Yishun Ring Road  #01-1534 S(760367),1.42959194362714,103.845121450591,school.gif
PCF Sparkletots Preschool @ Nee Soon East Blk 671 (DS),Kindergartens,760671,671 Yishun Avenue 4  #01-01 S(760671),1.41919116256839,103.841581273115,school.gif
Mosaic Kindergarten,Kindergartens,589472,896 Dunearn Road Sime Darby Centre #01-01B S(589472),1.33667572858831,103.783709155893,school.gif
MRC Kindergarten (Yishun South),Kindergartens,760848,848 Yishun Street 81  #01-150 S(760848),1.41624344397915,103.835248986247,school.gif
Muhammadiyah Kindergarten,Kindergartens,419006,66 Jalan Lapang   S(419006),1.32303429054426,103.915442440453,school.gif
Mujahidin Mosque Kindergarten,Kindergartens,148952,590 Stirling Road   S(148952),1.29814970833183,103.800866440185,school.gif
MY FIRST SKOOL (DS),Kindergartens,730742,"742, WOODLANDS CIRCLE, #01 - 443, SINGAPORE 730742",1.44392118162242,103.79603161214,school.gif
My Montessori Preschool @ Bullion,Kindergartens,789100,172 Lentor Loop Bullion Park #02-01 S(789100),1.39159864463172,103.836623070687,school.gif
My Prep School,Kindergartens,448910,9 Siglap Road Mandarin Gardens Condominium  S(448910),1.3073862538938,103.925259997195,school.gif
My Prep School (Montessori) Pte Ltd,Kindergartens,467624,73 Lucky Heights Lucky Court S( 467624 ),1.31834306626229,103.941364023845,school.gif
"NAFA Arts Preschool",Kindergartens,429064,511 East Coast Road   S(429064),1.30976053359834,103.913935302828,school.gif
Nanyang Children School,Kindergartens,102078,78B Telok Blangah Street 32  #02-17 S(102078),1.27362997937477,103.808254905625,school.gif
Nanyang Kindergarten,Kindergartens,268155,118 King's Road   S(268155),1.31805747108794,103.805567260134,school.gif
Nanyang Kindergarten,Kindergartens,269460,51 Coronation Road   S(269460),1.32111548488685,103.806468060985,school.gif
New Life Kindergarten,Kindergartens,739147,10 Marsiling Lane   S(739147),1.44503089438486,103.777376784519,school.gif
Newton Kindergarten,Kindergartens,307995,16 Newton Road   S(307995),1.3141001527103,103.840838759034,school.gif
P & J Kindergarten,Kindergartens,574141,"35 Windsor Park Road, Windsor Park   S(574141)",1.3573180638172,103.8262492865,school.gif
Paper Scissors Stone Montessori Kindergarten,Kindergartens,488306,30 Jalan Pergam   S(488306),1.3436187694774,103.96142702251,school.gif
Paper Scissors Stone Montessori Kindergarten (Bedok Reservoir Branch),Kindergartens,470718,718 Bedok Reservoir Road  #01-4590 S(470718),1.33663363062984,103.925744931429,school.gif
Paya Lebar Methodist Church Covenant Kindergarten,Kindergartens,549954,5 Boundary Road   S(549954),1.35266365141096,103.875635643684,school.gif
PCF Sparkletots Preschool @ Admiralty Blk 501 (KN),Kindergartens,730501,501 Woodlands Drive 14  #01-52 S(730501),1.43292523050057,103.792007005269,school.gif
PCF Sparkletots Preschool @ Admiralty Blk 581 (DS),Kindergartens,730581,581 Woodlands Drive 16  #01-486 S(730581),1.42989029250495,103.796403908477,school.gif
PCF Sparkletots Preschool @ Admiralty Blk 687B (DS),Kindergartens,732687,687B Woodlands Drive 75  #01-47 S(732687),1.44188537579835,103.80716195226,school.gif
PCF Sparkletots Preschool @ Ang Mo Kio-Hougang Blk 632 (DS),Kindergartens,530632,632 Hougang Avenue 8 Blk 630 #01-28 S(530632),1.37056741706023,103.880591946023,school.gif
PCF Sparkletots Preschool @ Ang Mo Kio-Hougang Blk 970 (DS),Kindergartens,530970,970 Hougang Street 91  #01-152 S(530970),1.37879978868231,103.880363807334,school.gif
PCF Sparkletots Preschool @ Ayer Rajah Blk 48 (DS),Kindergartens,600048,48 Teban Gardens Road Blk 32 #01-248 S(600048),1.32049772842145,103.739967674523,school.gif
PCF Sparkletots Preschool @ Bedok Blk 30 (DS),Kindergartens,461030,30 New Upper Changi Road  #01-812 S(461030),1.32352677837467,103.9364238972,school.gif
PCF Sparkletots Preschool @ Bedok Reservoir Punggol Blk 414 (DS),Kindergartens,530414,414 Hougang Avenue 10 Blk 415 #01-1256 S(530414),1.37490432555167,103.895995988498,school.gif
PCF Sparkletots Preschool @ Bedok Reservoir Punggol Blk 475C (DS),Kindergartens,533475,475C Upper Serangoon Crescent  #01-547 S(533475),1.37521818176541,103.899995257604,school.gif
PCF Sparkletots Preschool @ Bedok Reservoir Punggol Blk 713 (DS),Kindergartens,470713,713 Bedok Reservoir Road  #01-3960 S(470713),1.33631179918593,103.922392174488,school.gif
PCF Sparkletots Preschool @ Bishan East-Thomson Blk 197 (KN),Kindergartens,570197,"197 Bishan Street 13 Blk 196,115 #01-567 S(570197)",1.3490967092373,103.850672502973,school.gif
PCF Sparkletots Preschool @ Bishan East-Thomson Blk 309 (KN),Kindergartens,570309,309 Shunfu Road  #01-175 S(570309),1.3509129611605,103.83758515995,school.gif
PCF Sparkletots Preschool @ Bishan North Blk 231 (DS),Kindergartens,570231,231 Bishan Street 23  #01-21 S(570231),1.35729122095242,103.845845691857,school.gif
PCF Sparkletots Preschool @ Boon Lay Blk 207 (DS),Kindergartens,640207,207 Boon Lay Place  #01-215 S(640207),1.34658609503224,103.713568354858,school.gif
PCF Sparkletots Preschool @ Boon Lay Blk 262 (KN),Kindergartens,640262,262 Boon Lay Drive  #01-573 S(640262),1.34480139424945,103.707299110086,school.gif
PCF Sparkletots Preschool @ Boon Lay Blk 631 (KN),Kindergartens,640631,631 Jurong West Street 65  #01-260 S(640631),1.34305786631261,103.700135375227,school.gif
PCF Sparkletots Preschool @ Braddell Heights Blk 417 (DS),Kindergartens,550417,417 Serangoon Central Blk 1 #01-456 S(550417),1.34993638310019,103.875055744068,school.gif
PCF Sparkletots Preschool @ Bukit Batok Blk 148 (KN),Kindergartens,650148,148 Bukit Batok West Avenue 6  #01-319 S(650148),1.34927161964366,103.743590949149,school.gif
PCF Sparkletots Preschool @ Bukit Batok Blk 180 (KN),Kindergartens,650180,180 Bukit Batok West Avenue 8  #01-181 S(650180),1.34555791776478,103.742841023535,school.gif
PCF Sparkletots Preschool @ Bukit Batok East Blk 241 (KN),Kindergartens,650241,241 Bukit Batok East Avenue 5  #01-261 S(650241),1.35089522190172,103.754544471049,school.gif
PCF Sparkletots Preschool @ Bukit Batok East Blk 285C (KN),Kindergartens,603285,285C Toh Guan Road Blk 285D #01-92 S(603285),1.33788839482394,103.746604061696,school.gif
PCF Sparkletots Preschool @ Bukit Batok East Blk 289G (KN),Kindergartens,656289,289G Bukit Batok Street 25  #01-94 S(656289),1.34504259059526,103.758784102186,school.gif
PCF Sparkletots Preschool @ Bukit Gombak Blk 535 (DS),Kindergartens,650535,535 Bukit Batok Street 52  #01-631 S(650535),1.35497074807122,103.750399552477,school.gif
PCF Sparkletots Preschool @ Bukit Panjang Blk 111 (KN),Kindergartens,670111,111 Gangsa Road Blk 110 #01-75 S(670111),1.37816746354443,103.768365662696,school.gif
PCF Sparkletots Preschool @ Bukit Panjang Blk 226 (KN),Kindergartens,670226,226 Pending Road  #01-179 S(670226),1.37523655433938,103.772368432964,school.gif
PCF Sparkletots Preschool @ Tampines-Changkat Blk 284 (KN),Kindergartens,520284,284 Tampines Street 22 Blk 285 #01-149 S(520284),1.34910383986383,103.952628182033,school.gif
PCF Sparkletots Preschool @ Tampines-Changkat Blk 318 (KN),Kindergartens,520318,318 Tampines Street 33  #01-80 S(520318),1.35146093936105,103.956074917564,school.gif
PCF Sparkletots Preschool @ Tampines-Changkat Blk 358 (KN),Kindergartens,520358,358 Tampines Street 33  #01-666 S(520358),1.3544744687452,103.961004161557,school.gif
PCF Sparkletots Preschool @ Tanjong Pagar-Tiong Bahru Blk 130 (KN),Kindergartens,160130,130 Kim Tian Road Blk 127 #01-157 S(160130),1.28041254225052,103.829271249063,school.gif
PCF Sparkletots Preschool @ Tanjong Pagar-Tiong Bahru Blk 1E (KN),Kindergartens,085501,1E Cantoment Road  #03-49 S(085501),1.27662167527506,103.841156141356,school.gif
PCF Sparkletots Preschool @ Teck Ghee Blk 301 (DS),Kindergartens,560301,301 Ang Mo Kio Street 31  #01-1814 S(560301),1.36742110670752,103.845903594016,school.gif
PCF Sparkletots Preschool @ Teck Ghee Blk 466 (KN),Kindergartens,560466,466 Ang Mo Kio Avenue 10  #01-1034 S(560466),1.36581960528613,103.857061604498,school.gif
PCF Sparkletots Preschool @ Telok Blangah Blk 2 (KN),Kindergartens,130002,2 Dover Road  #01-342 S(130002),1.30310744987639,103.782900811104,school.gif
PCF Sparkletots Preschool @ Kaki Bukit Blk 519 (KN),Kindergartens,460519,519 Bedok North Avenue 1 Blk 545 #01-372 S(460519),1.33087464133036,103.928059100985,school.gif
PCF Sparkletots Preschool @ Kaki Bukit Blk 526 (KN),Kindergartens,460526,526 Bedok North Street 3  #01-462 S(460526),1.33421551578193,103.929129823959,school.gif
PCF Sparkletots Preschool @ Kampong Chai Chee Blk 135 (KN),Kindergartens,460135,135 Bedok North Street 2  #01-137 S(460135),1.32873200878091,103.936506735481,school.gif
PCF Sparkletots Preschool @ Kampong Chai Chee Blk 775 (KN),Kindergartens,470775,775 Bedok Reservoir View  #01-333 S(470775),1.33655000875481,103.93582197693,school.gif
PCF Sparkletots Preschool @ Kampong Glam Blk 462 (DS),Kindergartens,190462,462 Crawford Lane  #03-33 S(190462),1.30458617712551,103.860840758836,school.gif
PCF Sparkletots Preschool @ Keat Hong Blk 295 (DS),Kindergartens,680295,295 Choa Chu Kang Avenue 2  #01-169 S(680295),1.37816642908623,103.740967964377,school.gif
PCF Sparkletots Preschool @ Keat Hong Blk 411 (DS),Kindergartens,680411,411 Choa Chu Kang Avenue 3  #01-359 S(680411),1.38105979174943,103.7412601713,school.gif
PCF Sparkletots Preschool @ Keat Hong Blk 801 (DS),Kindergartens,680801,801 Keat Hong Close  #01-01 S(680801),1.37524902480591,103.743449894478,school.gif
PCF Sparkletots Preschool @ Kembangan Chai Chee Blk 116 (DS),Kindergartens,410116,116 Lengkong Tiga  #01-187 S(410116),1.32278532818172,103.911863015232,school.gif
PCF Sparkletots Preschool @ Kembangan Chai Chee Blk 326 (KN),Kindergartens,400326,326 Ubi Avenue 1  #01-675 S(400326),1.32717743248404,103.903801524218,school.gif
PCF Sparkletots Preschool @ Kembangan Chai Chee Blk 59 (KN),Kindergartens,460059,59 Chai Chee Road  #01-878 S(460059),1.32488916006591,103.92024673054,school.gif
PCF Sparkletots Preschool @ Kolam Ayer Blk 64 (KN),Kindergartens,330064,64 Kallang Bahru Blk 52 #01-375 S(330064),1.32036883993844,103.868340800907,school.gif
PCF SPARKLETOTS PRESCHOOL @ KRETA AYER-KIM SENG BLK 79 (DS),Kindergartens,161079,"79, INDUS ROAD, #01 - 435, INDUS GARDEN, SINGAPORE 161079",1.29107461638082,103.828690178431,school.gif
PCF Sparkletots Preschool @ Macpherson Blk 108 (KN),Kindergartens,380108,108 Aljunied Cres Blk 17 #01-36 S(380108),1.31901275469313,103.885168796429,school.gif
PCF Sparkletots Preschool @ Macpherson Blk 31 (KN),Kindergartens,370031,31 Balam Road  #01-103 S(370031),1.3296823206226,103.88540800234,school.gif
PCF Sparkletots Preschool @ Marine Parade Blk 46 (DS),Kindergartens,440046,46 Marine Crescent Blk 47 #01-42 S(440046),1.30510474291299,103.912659621658,school.gif
PCF Sparkletots Preschool @ Marsiling Blk 302 (KN),Kindergartens,730302,302 Woodlands Street 31 Blk 31 #01-301 S(730302),1.43151114459947,103.774428428987,school.gif
Bethesda (Katong) Kindergarten,Kindergartens,456929,2 La Salle Street   S(456929),1.31680130749558,103.918409415348,school.gif
Bethesda (Pasir Ris) Kindergarten,Kindergartens,518458,11 Pasir Ris Drive 2   S(518458),1.36794698202429,103.964444243625,school.gif
Bethesda Chapel Kindergarten,Kindergartens,416913,27 Lorong Melayu   S(416913),1.32064873039784,103.910032017265,school.gif
Bibinogs Preschool K.A.,Kindergartens,269695,559 Bukit Timah Road  #B1-01 S(269695),1.32313885832492,103.81067616506,school.gif
Blue House International School,Kindergartens,287988,2 Turf Club Road   S(287988),1.33589728716014,103.795941519395,school.gif
Brainfit School House Pte. Ltd.,Kindergartens,329983,18 Ah Hood Road #04-51 S(329983),1.32710813170856,103.846374260603,school.gif
Brainy Bunch International Montessori,Kindergartens,530247,247 Hougang Avenue 3  #01-452 S(530247),1.35916574128219,103.891524302176,school.gif
Brainy Bunch International Montessori (Pasir Ris),Kindergartens,510273,273 Pasir Ris Street 21  #01-498 S(510273),1.36484626595442,103.964113175833,school.gif
British Council (Singapore) Pre-school,Kindergartens,528729,11 Tampines Concourse  #01-02/03/04 S(528729),1.35638869589814,103.940884212615,school.gif
Bukit Panjang Methodist Church Kindergarten,Kindergartens,678099,488 Upper Bukit Timah Road John Wesley Centre  S(678091),1.36190360024981,103.767936368397,school.gif
Callidus Preschool,Kindergartens,570229,229 Bishan Street 23  #B1-53 S(570229),1.35760845055583,103.845962916789,school.gif
Calvary Pandan Kindergarten,Kindergartens,609337,201 Pandan Gardens   S(609337),1.32121263356365,103.745983723854,school.gif
Camelot at River Valley Pte. Ltd.,Kindergartens,239426,80 Kim Seng Road  #01-08 S(239426),1.29202896506623,103.834255979831,school.gif
Canossian Convent Kindergarten,Kindergartens,598454,100 Jalan Merbok   S(598454),1.34556065505878,103.76430222495,school.gif
Catholic Kindergarten,Kindergartens,549404,15 Flower Road   S(549404),1.36010502069796,103.881990499657,school.gif
Cavenur Kindergarten Pte. Ltd.,Kindergartens,520741,741 Tampines Street 72  #01-74 S(520741),1.36001177535613,103.933043784538,school.gif
Cedan Kindergarten,Kindergartens,820198,198 Punggol Field  #02-02 S(820198),1.3995094177884,103.906371608671,school.gif
Centre of New Life Kindergarten,Kindergartens,649151,5 Jurong West Street 74   S(649151),1.3493816179959,103.698883758933,school.gif
CGM Kindergarten,Kindergartens,689457,172 Choa Chu Kang Avenue 1   S(689457),1.37731135809545,103.746705228016,school.gif
Chen Li Kindergarten,Kindergartens,399711,76 Guillemard Road   S(399711),1.309566609679,103.880381141146,school.gif
Chengzhu Mandarin Kindergarten,Kindergartens,138639,35 Rochester Drive The Rochester #03-01/02/03/04/05/27 S(138639),1.30535120421258,103.788347378512,school.gif
Children's Vineyard Kindergarten,Kindergartens,428102,42 Joo Chiat Lane   S(428102),1.31233159790085,103.903418007443,school.gif
Chinese Kindergarten,Kindergartens,169053,256 Outram Road   S(169053),1.28575140640772,103.835938249326,school.gif
Choa Chu Kang Bible Centre Kindergarten,Kindergartens,689284,10 Choa Chu Kang Street 52   S(689284),1.39447144744345,103.74405435399,school.gif
Clementi Woods Kindergarten LLP,Kindergartens,127370,152 West Coast Road   S(127370),1.30287178230114,103.765810208111,school.gif
Coco-Ro learning House,Kindergartens,239850,20 Devonshire Road  Devonshire Building #01-01/02 S(239850),1.29819896463944,103.838024583204,school.gif
Darul Ghufran Mosque Kindergarten,Kindergartens,529651,503 Tampines Avenue 5   S(529651),1.35535423409214,103.939910572597,school.gif
Darul Makmur Mosque Kindergarten,Kindergartens,769099,950 Yishun Avenue 2   S(769099),1.43686614084217,103.834340340387,school.gif
Dayspring Kindergarten,Kindergartens,828670,11 Northshore Drive Marina Country Club  S(828670),1.41494972645653,103.898820546221,school.gif
Hope Community Kindergarten (Choa Chu Kang),Kindergartens,689907,21 Choa Chu Kang Avenue 2   S(689907),1.37776771265351,103.740253371367,school.gif
Hope Community Kindergarten (Sembawang),Kindergartens,757614,55 Sembawang Drive   S(757614),1.45475508257236,103.814545962606,school.gif
Hope Community Kindergarten (Tampines),Kindergartens,529151,20 Tampines Street 43   S(529151),1.36140392768634,103.952153518306,school.gif
House on the Hill Montessori Pre-School,Kindergartens,118733,396 Pasir Panjang Road Singapore Post Office #01-02/#02-01 S(118733),1.2915371399468,103.771129088639,school.gif
Ichiban Nurtureland Kindergarten (Choa Chu Kang),Kindergartens,689022,31 Hong San Walk   S(689022),1.37729300082056,103.745756863098,school.gif
Idealkidz,Kindergartens,757087,7 Gambas Crescent Ark@Gambas #01-15 S(757087),1.44477273561017,103.812740482752,school.gif
Iman Kindergarten (CCK),Kindergartens,680530,530 Choa Chu Kang Street 51  #01-323 S(680530),1.3926269192814,103.741798788286,school.gif
Iman Kindergarten (Tenagaville),Kindergartens,410651,651 Jalan Tenaga  #01-04 S(410651),1.33219242402732,103.907363530901,school.gif
Iman Kindergarten (Yishun),Kindergartens,760934,934 Yishun Central 1  #01-57 S(760934),1.42576336379243,103.836539122751,school.gif
Iroha Kindergarten,Kindergartens,397999,231 Mountbatten Road Block C #01-01 S(397999),1.30802739309345,103.880481033646,school.gif
Jamiyah Kindergarten,Kindergartens,399006,31 Lorong 12 Geylang  Level 3 S(399006),1.31037917826093,103.878782315215,school.gif
Jenius Kindergarten (Hougang),Kindergartens,530915,915 Hougang Street 91  #01-10 S(530915),1.37757028719604,103.883566207276,school.gif
Jessin Kindergarten,Kindergartens,310085,85B Lorong 4 Toa Payoh  #01-336 S(310085),1.33628535356382,103.848428648728,school.gif
JHS Montessori Kindergarten,Kindergartens,248373,491B River Valley Road Valley Point Tower #02-01 S(248373),1.29306926816069,103.82703434057,school.gif
Josiah Montessori Kindergarten,Kindergartens,529284,5 Tampines Street 32  #02-01 S(529284),1.35436981239791,103.95990645157,school.gif
Joyful Jenius Preschool,Kindergartens,552542,542B Serangoon North Avenue 3  #01-03 S(552542),1.37368392065323,103.871416986034,school.gif
Jurong Calvary Kindergarten,Kindergartens,618720,1 Tao Ching Road   S(618720),1.33319032715908,103.723491063579,school.gif
Jurong Christian Church Kindergarten,Kindergartens,618744,2 Tah Ching Road   S(618744),1.33648469808136,103.722120512842,school.gif
Kampong Kapor Methodist Church Kindergarten,Kindergartens,208673,1 Kampong Kapor Road   S(208673),1.30717565670963,103.853939827349,school.gif
Kampung Siglap Mosque Kindergarten,Kindergartens,449283,451 Marine Parade Road   S(449283),1.30985531851085,103.927555072181,school.gif
Kay Poh Road Baptist Kindergarten,Kindergartens,248963,7 Kay Poh Road   S(248963),1.29661103014609,103.829094847341,school.gif
Khalsa Kindergarten,Kindergartens,209943,1 Beatty Road   S(209943),1.31429090538594,103.858317001214,school.gif
Kidz Meadow Kindergarten,Kindergartens,519108,102 Pasir Ris Road   S(519108),1.38368697980777,103.943440850168,school.gif
Kim Keat Christian Church Kindergarten,Kindergartens,339843,11 Beng Wan Road   S(339843),1.32441877850457,103.865899484003,school.gif
Kizroo Kindergarten,Kindergartens,287994,200 Turf Club Road The Grandstand #06-03 S(287994),1.33899462699318,103.793133806944,school.gif
Little Hands Montessori Kindergarten,Kindergartens,238565,2A Paterson Hill   S(238565),1.30152875524138,103.829090071464,school.gif
Little Leader Kindergarten,Kindergartens,760102,102 Yishun Avenue 5  #04-115 S(760102),1.43061828858561,103.828762992395,school.gif
Little Moppets Preschool @ Tampines Pte Ltd,Kindergartens,522497,497C Tampines Street 45  #01-54 S(522497),1.35825225017841,103.958367363018,school.gif
Little Oaks Montessori Kindergarten,Kindergartens,259226,98 Farrer Road   S(259226),1.3197369476801,103.81184648166,school.gif
Little Ones Kindergarten,Kindergartens,278886,58 Holland Grove Drive   S(278886),1.31396623259279,103.779997544892,school.gif
Little Seeds Preshool @ PPHBC,Kindergartens,118827,3 Pasir Panjang Hill    S(118827),1.28035246795484,103.785736404322,school.gif
Little Shepherds' Schoolhouse@Blessed Sacrament Church,Kindergartens,149603,1 Commonwealth Drive   S(149603),1.29580363679915,103.798802361393,school.gif
Little Shepherds' Schoolhouse@Church of St Francis of Assisi (BL),Kindergartens,649964,200 Boon Lay Avenue   S(649964),1.3479017381122,103.710984438404,school.gif
Little Shepherds' Schoolhouse@Church of St Francis Xavier,Kindergartens,558758,63A Chartwell Drive   S(558758),1.35864949579806,103.863529970358,school.gif
Little Shepherds' Schoolhouse@Church of the Holy Family,Kindergartens,429509,6 Chapel Road   S(429509),1.30680767028152,103.906924696743,school.gif
Little Shepherds' Schoolhouse@Church of the Holy Trinity,Kindergartens,529455,20 Tampines Street 11   S(529455),1.34884144915906,103.949335266876,school.gif
Little Shepherds' Schoolhouse@Church of the Nativity,Kindergartens,538791,98 Hougang Avenue 8   S(538791),1.37415859812668,103.89768488976,school.gif
Little Shepherds' Schoolhouse@St Anne’s Church,Kindergartens,548593,66 Sengkang East Way   S(548593),1.39188938660764,103.901675482455,school.gif
Little Shepherds’ Schoolhouse@Church of St Francis of Assisi-JW,Kindergartens,649368,47 Jurong West Street 42   S(649368),1.35135367421172,103.716391798561,school.gif
Little Skittles International Preschool,Kindergartens,438052,11 Margate Road   S(438052),1.29847421984102,103.889075335163,school.gif
Little Woods Montessori Preschool,Kindergartens,309166,45 Gentle Road   S(309166),1.318880172033,103.838418626675,school.gif
LittleSparks Montessori Kindergarten,Kindergartens,456192,20 Siglap Drive Bowmont Centre #01-06 S(456192),1.31565624480678,103.9192457393,school.gif
Living Sanctuary Kindergarten,Kindergartens,538728,2 Hougang Street 22 Bethesda Ground  S(538728),1.35598783571519,103.891400629514,school.gif
Lodestar Montessori Preschool Pte. Ltd.,Kindergartens,537319,23 Jalan Teliti   S(537319),1.3606195338974,103.890411448921,school.gif
Lumiere Montessori House,Kindergartens,357971,64 Wolskel Road   S(357971),1.34715334915268,103.869823852198,school.gif
Mahad Al - Nasry Kindergarten,Kindergartens,520476,476 Tampines Street 44  #01-179 S(520476),1.36092283091749,103.953359374504,school.gif
Mahad Al-Nasry @ Sengkang kindergarten,Kindergartens,546646,415 Punggol Road   S(546646),1.39171000864574,103.90112110053,school.gif
Maplebear Gracefields Pte Ltd,Kindergartens,248668,1 One Tree Hill   S(248668),1.30058937406419,103.824478746174,school.gif
Maris Stella Kindergarten,Kindergartens,258851,49B Holland Road   S(258851),1.30885962108237,103.80830854784,school.gif
Masterminds Kindergarten,Kindergartens,229863,204 Bukit Timah Road Boon Liew Building #01-00 S(229863),1.31189405532805,103.841976888154,school.gif
MFC Kindergarten (Broadrick Road),Kindergartens,439476,11 Broadrick Road   S(439476),1.29979210412369,103.890672262722,school.gif
MFC Kindergarten (Newton),Kindergartens,307970,43 Newton Road   S(307970),1.31798740096571,103.841298120018,school.gif
Milagros de Montessori School - Queens Close,Kindergartens,140021,"21, QUEEN'S CLOSE, #01 - 141 , SINGAPORE 140021",1.29327263801382,103.799914667228,school.gif
Modern Montessori Kindergarten,Kindergartens,457037,12 Kee Sun Avenue   S(457037),1.31141603164269,103.929290138295,school.gif
Monte Kidz World (Pasir Ris),Kindergartens,510625,625 Elias Road  #02-330 S(510625),1.37860717814264,103.9419163678,school.gif
Montessori Children's House Kindergarten,Kindergartens,278685,886 Old Holland Road   S(278685),1.33216945979755,103.790714530768,school.gif
Morning Glory Preschool,Kindergartens,640414,414 Jurong West Street 42   #01-793  S(640414),1.35281998120377,103.726034875626,school.gif
Divinity Kindergarten,Kindergartens,408570,70 Ubi Crescent Ubi Tech Park #01-05 S(408570),1.32671017499221,103.895045995009,school.gif
D'Learning Sparks Montessori,Kindergartens,419145,103 Jalan Kembangan   S(419145),1.32521087760897,103.913194640393,school.gif
Dreamkids Kindergarten @ East Gate Pte Ltd,Kindergartens,428766,46 East Coast Road Eastgate #01-03 S(428766),1.30438465738331,103.90333864479,school.gif
Dynamic World Montessori Preschool,Kindergartens,428951,292 East Coast Road   S(428951),1.30816202979531,103.9093278394,school.gif
Early Years Montessori,Kindergartens,597475,16 Sunset Drive   S(597475),1.32578167482033,103.766715020331,school.gif
Edelweiss Kindergarten Sembawang Presbyterian Church,Kindergartens,768443,10B Jalan Jeruju   S(768443),1.441244338229,103.825619958856,school.gif
Elite Learning Kindergarten Pte Ltd,Kindergartens,640720,720 Jurong West Avenue 5  #B1-94 S(640720),1.34435136562996,103.697497316312,school.gif
En-Naeem Mosque Kindergarten,Kindergartens,535136,120 Tampines Road   S(535136),1.36092931254353,103.892551076247,school.gif
Etonhouse International Research Preschool,Kindergartens,436736,716 Mountbatten Road   S(436736),1.30277935295747,103.888926442678,school.gif
Evangel Kindergarten,Kindergartens,738488,1 Woodlands Street 83   S(738488),1.43949658287091,103.791761373526,school.gif
Faith Kindergarten,Kindergartens,149604,400 Commonwealth Drive   S(149604),1.30261424460036,103.797294498346,school.gif
Far Eastern Kindergarten,Kindergartens,309063,9A Gilstead Road   S(309063),1.31594489461724,103.837950231413,school.gif
First Step Montessori House,Kindergartens,760716,716 Yishun Street 71  #01-268 S(760716),1.42615724781638,103.827449415493,school.gif
Foochow Methodist Church Kindergarten,Kindergartens,218577,90 Race Course Road   S(218577),1.30894456814707,103.851699016384,school.gif
Galilee Kindergarten,Kindergartens,609338,202 Pandan Gardens   S(609338),1.32176984141743,103.746228330603,school.gif
Gate Junior Preschool,Kindergartens,467905,46 Limau Garden   S(467905),1.3224202994198,103.949903049914,school.gif
Glory Kindergarten,Kindergartens,597611,11 Pei Wah Avenue   S(597611),1.33828864435804,103.775479086493,school.gif
Good Shepherd Convent Kindergarten,Kindergartens,456650,25 Nallur Road   S(456650),1.31121730631033,103.932553752065,school.gif
Grace House @ Tanglin,Kindergartens,247960,355 Tanglin Road   S(247960),1.29430566123725,103.816385924747,school.gif
Grace House @ TRBK PTE LTD,Kindergartens,307584,45 Thomson Road Thomson Road Baptist Church  S(307584),1.31486728618646,103.844295028715,school.gif
Grace House Kindergarten,Kindergartens,659125,1 Bukit Batok West Avenue 4  #04-01 S(659125),1.36467949708284,103.747427339514,school.gif
Hanis Montessori Kindergarten (Choa Chu Kang),Kindergartens,680707,707 Choa Chu Kang Street 53  #01-118 S(680707),1.39038150426611,103.747115975931,school.gif
Hanis Montessori Kindergarten (Enterprise One),Kindergartens,415934,1 Kakit Bukit Road Enterprise One #01-10 S(415934),1.33274847724842,103.902616367273,school.gif
Hanis Montessori Kindergarten (Kovan),Kindergartens,534645,777 Upper Serangoon Road  #01-01 S(534645),1.35497686070883,103.87854794511,school.gif
Hanis Montessori Kindergarten (Pasir Ris),Kindergartens,510775,775 Pasir Ris Street 71  #01-402 S(510775),1.37406385993511,103.937049592237,school.gif
Hanis Montessori Kindergarten (Tampines),Kindergartens,520374,374 Tampines Street 34  #01-42 S(520374),1.35642450436441,103.958609334889,school.gif
Hanis Montessori Kindergarten (Woodlands),Kindergartens,730424,424 Woodlands Street 41  #01-340 S(730424),1.42728730224268,103.774859403272,school.gif
Heartfield Kindergarten,Kindergartens,259810,31 Balmoral Road   S(259810),1.31705948582064,103.833893297789,school.gif
Holy Grace Kindergarten,Kindergartens,466484,408-B Upper East Coast Road   S(466484),1.31408913751188,103.93948239896,school.gif
3House Kindergarten (Tampines),Kindergartens,520891,891 Tampines Avenue 8  #01-82 S(520891),1.34922500248819,103.931119234309,school.gif
ACES Montessori Kidz Kindergarten,Kindergartens,519457,1 Pasir Ris Drive 4 Pasir Ris East Community CC #04-05 S(519457),1.3685870294423,103.959198004761,school.gif
Agape Montessori House Kindergarten,Kindergartens,574756,11 Thomson Hills Drive   S(574756),1.37837963785981,103.832183441332,school.gif
Al - Amin Pre-School,Kindergartens,529287,9 Tampines Street 32  #02-01 S(529287),1.35454943443089,103.959900189822,school.gif
Al - Amin Preschool (Pasir Ris),Kindergartens,510570,570 Pasir Ris Street 53  #01-64 S(510570),1.37276905533651,103.946510452453,school.gif
Al - Ansar Mosque Kindergarten,Kindergartens,469751,155 Bedok North Avenue 1   S(469751),1.32698961847406,103.926353888519,school.gif
Al - Iman Mosque Kindergarten,Kindergartens,679943,10 Bukit Panjang Ring Road   S(679943),1.37814088256746,103.772732871604,school.gif
Al - Istighfar Mosque Kindergarten,Kindergartens,518239,2 Pasir Ris Walk   S(518239),1.37099780289622,103.964110389053,school.gif
Al - Istiqamah Mosque Kindergarten,Kindergartens,555876,2 Serangoon North Avenue 2   S(555876),1.36920170010691,103.87562664331,school.gif
Al - Khair Mosque Kindergarten,Kindergartens,688847,1 Teck Whye Crescent   S(688847),1.38261285145336,103.749937140946,school.gif
Al - Mukminin Mosque Kindergarten,Kindergartens,609603,271 Jurong East Street 21   S(609603),1.33921643619988,103.741421886454,school.gif
Al - Muttaqin Mosque Kindergarten,Kindergartens,569844,5140 Ang Mo Kio Avenue 6   S(569844),1.37052179738256,103.84590479448,school.gif
Al-Nasry @ Jurong West Kindergarten,Kindergartens,640743,743 Jurong West Street 73  #B1-03 S(640743),1.3472933612616,103.699193661791,school.gif
Al-Nasry @ Sengkang South,Kindergartens,530552,"552 Hougang Street 51 Blk 541, Hougang Avenue 8 #B1-296, #B1-1215 S(530552), S(530541)",1.37880333068028,103.890373634981,school.gif
An - Nur Mosque Kindergarten,Kindergartens,739983,6 Admiralty Road   S(739983),1.44072762760387,103.771877537242,school.gif
Ang Mo Kio Methodist Church Kindergarten,Kindergartens,569383,1 Ang Mo Kio Street 21   S(569383),1.36711199290138,103.835333631377,school.gif
Ar - Raudhah Mosque Kindergarten,Kindergartens,659919,30 Bukit Batok East Avenue 2   S(659919),1.35166029008021,103.756001923347,school.gif
Arise Kindergarten,Kindergartens,589240,2B Hindhede Road   S(589240),1.34462142910415,103.775707049942,school.gif
Assyakirin Mosque Kindergarten,Kindergartens,618617,550 Yung An Road   S(618617),1.33544839679201,103.719566219994,school.gif
Banyan Tree Education @ AMK PTE. LTD.,Kindergartens,569880,7030 Ang Mo Kio Ave 5 Northstar@AMK #01-45 S(569880),1.37792345234586,103.875389836619,school.gif
Barker Road Methodist Church Kindergarten,Kindergartens,309936,70 Barker Road  #01-01 S(309936),1.31918221398828,103.8344894946,school.gif
Bedok Methodist Church Kindergarten,Kindergartens,469371,86 Bedok Road   S(469371),1.32375594182421,103.95394521227,school.gif
Bello Bambini Montessori Pte Ltd,Kindergartens,577177,37 Jalan Pemimpin MAPEX #01-12 S(577177),1.34884335934228,103.840907484638,school.gif
Bethany Kindergarten,Kindergartens,534934,301 Upper Paya Lebar Road   S(534934),1.34425557500804,103.881861644979,school.gif
Bethel Kinderlites,Kindergartens,380114,114 Aljunied Avenue 2  #03-75 S(380114),1.32176642868488,103.88667279475,school.gif
Bethesda (Ang Mo Kio) Kindergarten,Kindergartens,569898,601 Ang Mo Kio Ave 4   S(569898),1.37468314004991,103.83730702166,school.gif
Bethesda (Bedok-Tampines) Kindergarten,Kindergartens,469717,300 Bedok North Avenue 3   S(469717),1.33121916051238,103.934743789896,school.gif
Bethesda (Bukit Arang) Kindergarten,Kindergartens,556110,114 Serangoon Avenue 3   S(556110),1.34944975482864,103.867434210227,school.gif
Bethesda (Depot Walk) Kindergarten,Kindergartens,109590,10 Depot Walk   S(109590),1.28188712349473,103.814161010439,school.gif
PCF Sparkletots Preschool @ Chong Pang Blk 107 (KN),Kindergartens,760107,107 Yishun Ring Road  #01-207 S(760107),1.43221807457959,103.827520205691,school.gif
PCF Sparkletots Preschool @ Chong Pang Blk 122 (KN),Kindergartens,760122,122 Yishun Street 11  #01-479 S(760122),1.43499758064097,103.831124799259,school.gif
PCF Sparkletots Preschool @ Chua Chu Kang Blk 10 (KN),Kindergartens,680010,10 Teck Whye Avenue Blk 8 #01-59 S(680010),1.38047054364368,103.755211079769,school.gif
PCF Sparkletots Preschool @ Clementi Blk 330 (DS),Kindergartens,120330,330 Clementi Avenue 2  #01-170 S(120330),1.31374469736137,103.767781829665,school.gif
PCF Sparkletots Preschool @ Eunos Blk 122 (KN),Kindergartens,470122,122 Bedok Reservoir Road  #01-1025 S(470122),1.33197886360406,103.910623674092,school.gif
PCF Sparkletots Preschool @ Eunos Blk 616 (KN),Kindergartens,470616,616 Bedok Reservoir Road  #01-1106 S(470616),1.33182712339744,103.91499105001,school.gif
PCF Sparkletots Preschool @ Fengshan Blk 126 (DS),Kindergartens,460126,126 Bedok North Street 2 Blk 119 #01-88 S(460126),1.3281682927413,103.938917895267,school.gif
PCF Sparkletots Preschool @ Gambas Blk 309 (KN),Kindergartens,750309,309 Canberra  Road Blk 308 #01-109 S(750309),1.44675733629481,103.821562413468,school.gif
PCF Sparkletots Preschool @ Gambas Blk 408 (KN),Kindergartens,760408,408 Yishun Avenue 6  #01-1264 S(760408),1.42625359719969,103.84842751722,school.gif
PCF Sparkletots Preschool @ Geylang Serai Blk 11 (KN),Kindergartens,400011,11 Eunos Cresent  #01-2737 S(400011),1.32180028460211,103.904424351981,school.gif
PCF Sparkletots Preschool @ Geylang Serai Blk 14 (KN),Kindergartens,360014,14 Joo Seng Road Blk 15 #01-103 S(360014),1.33607364321632,103.879853833031,school.gif
PCF Sparkletots Preschool @ Henderson-Dawson Blk 124A (KN),Kindergartens,151124,124A Bukit Merah View Blk 123 #01-406 S(151124),1.28488703815263,103.8227818257,school.gif
PCF Sparkletots Preschool @ Hong Kah North Blk 276D (KN),Kindergartens,644276,276D Jurong West Street 25  #01-11 S(644276),1.35344765989071,103.704411154849,school.gif
PCF Sparkletots Preschool @ Hong Kah North Blk 319 (KN),Kindergartens,650319,319 Bukit Batok Street 33 Blk 315 #01-40 S(650319),1.36139507262983,103.746516661112,school.gif
PCF Sparkletots Preschool @ Hong Kah North Blk 338 (KN),Kindergartens,650338,338 Bukit Batok Street 34  #01-338 S(650338),1.36353416384199,103.750672681713,school.gif
PCF Sparkletots Preschool @ Hong Kah North Blk 446 (DS),Kindergartens,650446,446 Bukit Batok West Ave 8  #02-01 S(650446),1.35017084280658,103.739084637108,school.gif
PCF Sparkletots Preschool @ Hong Kah North Blk 750 (KN),Kindergartens,640750,750 Jurong West Street 73 Blk 749 #01-169 S(640750),1.34793710590411,103.699191896846,school.gif
PCF Sparkletots Preschool @ Hougang Blk 328 (DS),Kindergartens,530328,328 Hougang Avenue 5  #01-196 S(530328),1.36874824412797,103.896534516217,school.gif
PCF Sparkletots Preschool @ Jalan Kayu Blk 518 (DS),Kindergartens,550518,518 Serangoon North Avenue 4  #01-218 S(550518),1.37164172621645,103.874102223007,school.gif
PCF Sparkletots Preschool @ Jalan Kayu Blk 556 (DS),Kindergartens,560556,556 Ang Mo Kio Avenue 10  #01-1902 S(560556),1.37203235928375,103.857625376965,school.gif
PCF Sparkletots Preschool @ Jalan Kayu Blk 987C (DS),Kindergartens,532987,987C Buangkok Green  #01-57 S(532987),1.37939224446677,103.878283916604,school.gif
PCF SPARKLETOTS PRESCHOOL @ JALAN KAYU BLK 999 (DS),Kindergartens,530999,999 Buangkok Crescent #02-01 Singapore 530999,1.38456386152601,103.879946273543,school.gif
PCF Sparkletots Preschool @ Joo Chiat Blk 15 (DS),Kindergartens,425611,15 Lorong K Telok Kurau   S(425611),1.31252283533167,103.907449401136,school.gif
PCF Sparkletots Preschool @ Jurong Central Blk 490 (KN),Kindergartens,640490,490 Jurong West Avenue 1  #01-01 S(640490),1.34958659091958,103.727240367407,school.gif
PCF Sparkletots Preschool @ Jurong Spring Blk 465 (KN),Kindergartens,640465,465 Jurong West Street 41  #01-536 S(640465),1.35012594983807,103.723209577902,school.gif
PCF SPARKLETOTS PRESCHOOL @ JURONG SPRING BLK 528 (DS),Kindergartens,640528,"528, JURONG WEST STREET 52, #01 - 359, SINGAPORE 640528",1.3483196862436,103.716955473046,school.gif
PCF Sparkletots Preschool @ Nee Soon South Blk 875 (DS),Kindergartens,760875,875 Yishun St 81 Blk 874 #01-175 S(760875),1.41476320802965,103.836287026877,school.gif
PCF Sparkletots Preschool @ Pasir Ris East Blk 216 (KN),Kindergartens,510216,216 Pasir Ris Street 21 Blk 213 #01-184 S(510216),1.36902276931181,103.960913199419,school.gif
PCF Sparkletots Preschool @ Pasir Ris East Blk 426 (DS),Kindergartens,510426,426-1/2 Pasir Ris Drive 6  #01-73/61 S(510426),1.36995839383355,103.955787850586,school.gif
PCF Sparkletots Preschool @ Pasir Ris West Blk 517 (KN),Kindergartens,510517,517 Pasir Ris Street 52 Blk 511 #01-57 S(510517),1.37468100572044,103.943850338073,school.gif
PCF Sparkletots Preschool @ Pasir Ris West Blk 738 (KN),Kindergartens,510738,738 Pasir Ris Drive 10 Blk 737 #01-21 S(510738),1.37915488649575,103.936519195347,school.gif
PCF Sparkletots Preschool @ Paya Lebar Blk 125 (KN),Kindergartens,530125,125 Hougang Avenue 1 Blk 115 #01-1470 S(530125),1.35240982845812,103.886491577012,school.gif
PCF Sparkletots Preschool @ Paya Lebar Blk 23 (KN),Kindergartens,530023,23 Hougang Avenue 3  #01-303 S(530023),1.36486665879922,103.890727960773,school.gif
PCF Sparkletots Preschool @ Pioneer Blk 642 (KN),Kindergartens,640642,642 Jurong West Street 61  #01-60 S(640642),1.34036989237669,103.69583983146,school.gif
PCF Sparkletots Preschool @ Pioneer Blk 654B (KN),Kindergartens,642654,"654B Jurong West Street 61 Blk 652A, 652B, 654A, 654C #01-490 S(642654)",1.33616114832903,103.697939901767,school.gif
PCF Sparkletots Preschool @ Pioneer Blk 662B (KN),Kindergartens,642662,662B Jurong West Street 64 Blk 662C #01-312 S(642662),1.33701948788655,103.703388252733,school.gif
PCF Sparkletots Preschool @ Pioneer Blk 665A (KN),Kindergartens,641665,665A Jurong West Street 64 Blk 665B #01-160 S(641665),1.34009319102825,103.703124311416,school.gif
PCF Sparkletots Preschool @ Potong Pasir Blk 143 (DS),Kindergartens,350143,143 Potong Pasir Avenue 2  #01-24 S(350143),1.33290760445287,103.866168853054,school.gif
PCF Sparkletots Preschool @ Punggol Coast Blk 303A (DS),Kindergartens,821303,"303A, PUNGGOL CENTRAL, #01 - 782, SINGAPORE 821303",1.40377788424827,103.905762209088,school.gif
PCF Sparkletots Preschool @ Punggol Coast Blk 676B (DS),Kindergartens,822676,676B Punggol Drive  #02-724 S(822676),1.40489140406515,103.910209757484,school.gif
PCF Sparkletots Preschool @ Punggol East Blk 143 (KN),Kindergartens,540143,143 Rivervale Drive Blk 147 #01-557 S(540143),1.39006593370806,103.905723421775,school.gif
PCF Sparkletots Preschool @ Punggol East Blk 187B (KN),Kindergartens,542187,"187B Rivervale Drive Blk 187A, 188A #01-866 S(542187)",1.39429790829821,103.905847571802,school.gif
PCF Sparkletots Preschool @ Punggol North Blk 105D (KN),Kindergartens,824105,105D Edgefield Plains  #01-59 S(824105),1.39717529961829,103.905229593297,school.gif
PCF Sparkletots Preschool @ Punggol North Blk 171C (KN),Kindergartens,823171,171C Edgedale Plains Blk 171B #01-438 S(823171),1.39481474167418,103.91316095011,school.gif
PCF Sparkletots Preschool @ Punggol North Blk 174D (KN),Kindergartens,824174,174D Edgedale Plains Blk 176D #01-193 S(824174),1.39749399509675,103.909987381971,school.gif
PCF Sparkletots Preschool @ Punggol North Blk 663A (DS),Kindergartens,821663,663A Punggol Drive  #01-260 S(821663),1.40024347462967,103.917080044177,school.gif
PCF Sparkletots Preschool @ Punggol West Blk 271A (KN),Kindergartens,821271,271A Punggol Walk  #01-509 S(821271),1.40374539187196,103.900318869469,school.gif
PCF Sparkletots Preschool @ Punggol West Blk 308B (DS),Kindergartens,822308,308B Punggol Walk  #01-364 S(822308),1.40776677168872,103.898878690366,school.gif
PCF Sparkletots Preschool @ Queenstown Blk 3 (KN),Kindergartens,150003,3 Jalan Bukit Merah  #01-5118 S(150003),1.28713355018091,103.807000522532,school.gif
PCF SPARKLETOTS PRESCHOOL @ RADIN MAS BLK 18 (DS),Kindergartens,090018,"18, TELOK BLANGAH CRESCENT, #01 - 168, SINGAPORE 090018",1.27790984186905,103.82253585182,school.gif
PCF Sparkletots Preschool @ Radin Mas Blk 70A (KN),Kindergartens,151070,70A Redhill Close  #07-01 S(151070),1.28700658590108,103.816912472814,school.gif
PCF Sparkletots Preschool @ Sembawang Blk 789 (KN),Kindergartens,730789,"789 Woodlands Avenue 6 Blk 797, 788 #01-663 S(730789)",1.44333483207998,103.80237840904,school.gif
PCF Sparkletots Preschool @ Telok Blangah Blk 78A (DS),Kindergartens,101078,78A Telok Blangah Street 32  #03-01 S(101078),1.27338251281534,103.808934807455,school.gif
PCF Sparkletots Preschool @ Toa Payoh Central Blk 157 (KN),Kindergartens,310157,157 Lorong 1 Toa Payoh  #01-1243 S(310157),1.33220625020422,103.845452865271,school.gif
PCF Sparkletots Preschool @ Toa Payoh Central Blk 97 (KN),Kindergartens,310097,97 Lorong 3 Toa Payoh  #01-60 S(310097),1.3386255354481,103.847769288867,school.gif
PCF Sparkletots Preschool @ Toa Payoh West-Balestier Blk 131 (DS),Kindergartens,310131,131 Lorong 1 Toa Payoh West  #03-01 S(310131),1.33798457867288,103.843288848114,school.gif
PCF Sparkletots Preschool @ Toa Payoh West-Balestier Blk 205 (DS),Kindergartens,310205,205 Toa Payoh North  #01-1175 S(310205),1.34220948238466,103.847727627447,school.gif
PCF Sparkletots Preschool @ Toa Payoh West-Balestier Blk 45 (DS),Kindergartens,310045,45 Lorong 5 Toa Payoh  #01-149 S(310045),1.33586536053977,103.853751153692,school.gif
PCF SPARKLETOTS PRESCHOOL @ ULU PANDAN BLK 24 (DS),Kindergartens,270024,"24, Ghim Moh Link, #01 - 03, SINGAPORE 270024",1.30896726726612,103.785514310348,school.gif
PCF Sparkletots Preschool @ West Coast Blk 728 (KN),Kindergartens,120728,728 Clementi West Street 2  #01-390 S(120728),1.30561272185902,103.76360266545,school.gif
PCF Sparkletots Preschool @ Whampoa Blk 106 (KN),Kindergartens,322106,106 Towner Road  #01-434 S(322106),1.32102000591403,103.86099783467,school.gif
PCF Sparkletots Preschool @ Whampoa Blk 112 (KN),Kindergartens,321112,112 Whampoa Road  #01-83 S(321112),1.3260015314609,103.85673220864,school.gif
PCF Sparkletots Preschool @ Whampoa Blk 85 (DS),Kindergartens,320085,85 Whampoa Drive  #01-248 S(320085),1.3227891960228,103.856444479793,school.gif
PCF Sparkletots Preschool @ Woodgrove Blk 364 (KN),Kindergartens,730364,364 Woodlands Avenue 5 Blk 366 #01-478 S(730364),1.43407881633294,103.786743448794,school.gif
PCF Sparkletots Preschool @ Woodgrove Blk 899B (KN),Kindergartens,731899,899B Woodlands Drive 50  #01-276 S(731899),1.43613334257346,103.795264286099,school.gif
PCF Sparkletots Preschool @ Woodlands Blk 652 (KN),Kindergartens,730652,652 Woodlands Ring Road  #01-386 S(730652),1.4378988029552,103.799778585683,school.gif
PCF Sparkletots Preschool @ Woodlands Blk 730 (KN),Kindergartens,730730,730 Woodlands Circle Blk 731 #01-25 S(730730),1.44250943653375,103.797703852283,school.gif
PCF Sparkletots Preschool @ Woodlands Blk 875 (KN),Kindergartens,730875,875 Woodlands Street 82  #01-548 S(730875),1.44253260272389,103.789611666493,school.gif
PCF Sparkletots Preschool @ Yew Tee Blk 608 (DS),Kindergartens,680608,608 Choa Chu Kang Street 62  #01-103 S(680608),1.39846759226667,103.744645763617,school.gif
PCF Sparkletots Preschool @ Yew Tee Blk 682 (DS),Kindergartens,680682,682 Choa Chu Kang Crescent  #01-504 S(680682),1.40251052981138,103.745291163453,school.gif
PCF Sparkletots Preschool @ Yew Tee Blk 690D (KN),Kindergartens,684690,690D Choa Chu Kang Crescent Blk  69C #01-74 S(684690),1.40196203141515,103.751987240645,school.gif
PCF Sparkletots Preschool @ Yio Chu Kang Blk 235 (KN),Kindergartens,560235,235 Ang Mo Kio Avenue 3  #01-1114 S(560235),1.36682360253358,103.836491242618,school.gif
PCF Sparkletots Preschool @ Bukit Panjang Blk 422 (KN),Kindergartens,670422,422 Fajar Road Blk 420 [closed wef 6 Feb 17] #01-511 S(670422),1.38505147335169,103.769635356959,school.gif
PCF Sparkletots Preschool @ Bukit Timah Blk 312B (DS),Kindergartens,122312,312B Clementi Avenue 4 312C #01-181 S(122312),1.31967296762576,103.764455536752,school.gif
PCF Sparkletots Preschool @ Buona Vista Blk 4 (DS),Kindergartens,271004,4 Holland Close  #01-19 S(271004),1.30796826387314,103.795646465964,school.gif
PCF Sparkletots Preschool @ Buona Vista Blk 54 (DS),Kindergartens,142054,54 Commonwealth Drive  #01-564 S(142054),1.30164998575649,103.796796439331,school.gif
PCF Sparkletots Preschool @ Canberra Blk 330 (DS),Kindergartens,750330,330 Sembawang Close Blk 319 #01-383 S(750330),1.44680506942242,103.81781164141,school.gif
PCF Sparkletots Preschool @ Canberra Blk 487 (KN),Kindergartens,750487,487 Admiralty Link Blk 488 #01-131 S(750487),1.45545241106283,103.816118265341,school.gif
PCF Sparkletots Preschool @ Cashew Blk 545 (KN),Kindergartens,670545,"545 Bukit Panjang Ring Road Blk 544,607 #01-871 S(670545)",1.38159641457195,103.763496343773,school.gif
PCF Sparkletots Preschool @ Changi-Simei Blk 119 (KN),Kindergartens,520119,119 Simei Street 1  #01-506 S(520119),1.34375760745107,103.95189783774,school.gif
PCF Sparkletots Preschool @ Changi-Simei Blk 131 (KN),Kindergartens,520131,131 Simei Street 1  #01-208 S(520131),1.34550516127234,103.953954323795,school.gif
PCF Sparkletots Preschool @ Cheng San-Seletar Blk 435 (KN),Kindergartens,560435,435 Ang Mo Kio Avenue 10  #01-1393 S(560435),1.36770367492704,103.854214320416,school.gif
PCF Sparkletots Preschool @ Cheng San-Seletar Blk 533 (KN),Kindergartens,560533,533 Ang Mo Kio Avenue 5  #01-4100 S(560533),1.37416922383175,103.85300192794,school.gif
Zulfa Kindergarten @ Pasir Ris,Kindergartens,510626,626 Pasir Ris Drive 3 #01-302,1.3797933685312,103.940918762595,school.gif
Zulfa Kindergarten @ Sembawang Mart PTE LTD,Kindergartens,750511,511 Canberra Road #02-01,1.45384518348657,103.819543348907,school.gif
Swallows And Amazons Kindergarten,Kindergartens,287994,200 Turf Club Road   S(287994),1.33899462699318,103.793133806944,school.gif
The Ascension Kindergarten,Kindergartens,359338,11 Francis Thomas Drive   S(359338),1.33028062072756,103.866401830857,school.gif
The Little House (Montessori) Kindergarten,Kindergartens,287994,"200, TURF CLUB ROAD, #06-08,THE GRANDSTAND, (S)287994",1.33899462699318,103.793133806944,school.gif
The Montessori Playroom Kindergarten,Kindergartens,530806,806 Hougang Central  #04-144 S(530806),1.37107838895267,103.89410008795,school.gif
Toa Payoh Methodist Church Kindergarten,Kindergartens,319641,480 Lorong 2 Toa Payoh   S(319641),1.33409620597309,103.846449867758,school.gif
Tots Town Preschool @ Yishun,Kindergartens,760102,102 Yishun Avenue 5  #03-115 S(760102),1.43061828858561,103.828762992395,school.gif
Totsville Montessori Kindergarten (Bishan),Kindergartens,570230,230 Bishan Street 23  #B1-35 S(570230),1.35794579896956,103.845493593958,school.gif
Totsville Montessori Kindergarten Pte Ltd,Kindergartens,510720,720 Pasir Ris Street 72  01-105 S(510720),1.3817859609192,103.936411754031,school.gif
TPBC Kindergarten,Kindergartens,536698,20 Lorong Ah Soo   S(536698),1.35058735735798,103.880451217871,school.gif
True Way Presbyterian Kindergarten,Kindergartens,148947,156B Stirling Road   S(148947),1.29372737995427,103.805684881282,school.gif
Tung Ling Kindergarten,Kindergartens,449274,145 Marine Parade   S(449274),1.30451985721567,103.906370026138,school.gif
Two By Two Schoolhouse,Kindergartens,425500,55 Lor L Telok Kurau #03-61 Bright Centre  S(425500),1.31182050214657,103.91055724291,school.gif
Wee Care Kindergarten,Kindergartens,238698,"71, OXLEY RISE, #02-02, THE RISE @ OXLEY, Singapore S(238698)",1.29741707652828,103.843201152693,school.gif
White Lodge Bukit Timah Pte Ltd,Kindergartens,288712,39 Linden Drive   S(288712),1.33238991560995,103.801672371245,school.gif
White Lodge Kindergarten (East Coast),Kindergartens,399719,102 Guillemard Road  #02-01 S(399719),1.31001206135023,103.882409414559,school.gif
White Lodge Kindergarten (Phoenix Park),Kindergartens,247975,310 Tanglin Road   S(247975),1.29855564630799,103.814673178198,school.gif
White Lodge West Coast Pte Ltd,Kindergartens,118141,9 South Buona Vista Road   S(118141),1.28013029246683,103.786259570334,school.gif
Workplayz Montessori,Kindergartens,101088,"88A, Telok Blangah Heights  #01 - 02, Multi-Storey Carpark Singapore 101088",1.27729327698752,103.807739874599,school.gif
Zion Bishan Kindergarten,Kindergartens,579792,4 Bishan Street 13   S(579792),1.34709066317307,103.854878359659,school.gif
Zulfa Kindergarten,Kindergartens,640717,717 Jurong West Street 71  #B1-107 S(640717),1.34303495128601,103.697500889809,school.gif
Zulfa Kindergarten @ Choa Chu Kang,Kindergartens,680445,445 Choa Chu Kang Avenue 4  #01-307 S(680445),1.38170882577146,103.736662616157,school.gif
Zulfa Kindergarten @ Pasir Ris,Kindergartens,510626,626 Pasir Ris Drive 3  #01-302 S(510626),1.3797933685312,103.940918762595,school.gif
Zulfa Kindergarten @ Sembawang Mart PTE LTD,Kindergartens,750511,511 Canberra Road  #02-01 S(750511),1.45384518348657,103.819543348907,school.gif
Pentecost Methodist Church Kindergarten,Kindergartens,519420,4 Pasir Ris Drive 6,1.37125662209935,103.95714981437,school.gif
Pibos Garden Preschool,Kindergartens,299574,1 Dunearn Close,1.32366004578561,103.814594827163,school.gif
Pink Tower Montessori,Kindergartens,423731,252 Tembeling Road #01-07,1.30646586299788,103.905318259837,school.gif
Preschool Learning Academy @Temasek Polytechnic,Kindergartens,529757,21 Tampines Avenue 1,1.34793947802841,103.928839989349,school.gif
Prodigy Preschool,Kindergartens,522497,497C Tampines Street 45 #01-54,1.35825225017841,103.958367363018,school.gif
Pu Hui Kindergarten,Kindergartens,426603,8 Lorong 102 Changi Road,1.31591354209676,103.900452327906,school.gif
Putra - Putri Kindergarten,Kindergartens,730408,408 Woodlands Street 41,1.42885252458878,103.772369187339,school.gif
Quayside Isle Preparatory School,Kindergartens,98375,31 Ocean Way #01-17,1.2477586231673,103.84192109147,school.gif
Queenstown Good Shepherd Kindergarten,Kindergartens,149454,2 Dundee Road,1.29508500074892,103.80731736948,school.gif
Queenstown Lutheran Church Kindergarten,Kindergartens,149601,709 Commonwealth Drive,1.30620600054435,103.799132474644,school.gif
Raffles Montessori Kindergarten (Aljunied),Kindergartens,388375,Fansida Building 46 Lorong 23 Geylang #04-46C,1.31522653397246,103.88144706752,school.gif
Raffles Montessori Kindergarten (Still Road),Kindergartens,425080,105 Lorong Stangee,1.30984715854568,103.907760970253,school.gif
Rainbow Cove Montessori,Kindergartens,159948,Alexis 354 Alexandra Road,1.29130378240634,103.80735098559,school.gif
Ramakrishna Mission Sarada Kindergarten,Kindergartens,539784,179 Bartley Road,1.34372407111213,103.879498778206,school.gif
Ripples Montessori Kindergarten,Kindergartens,488676,Picardy Garden 10 Jalan Pari Burong,1.33354282355609,103.948154514457,school.gif
Riverlife Kindergarten,Kindergartens,509026,6 Loyang Besar Close,1.37836825105585,103.957785396157,school.gif
Saraswathy Darma Muneeswaran Kindergarten,Kindergartens,760838,838 Yishun Street 81 #01-322,1.41642177176593,103.833559776614,school.gif
Saraswathy Kindergarten,Kindergartens,310254,254 Kim Keat Avenue #01-110,1.33173314647591,103.858329274753,school.gif
Seeds D' Learning House,Kindergartens,423731,252 Tembeling Road #02-07,1.30646586299788,103.905318259837,school.gif
Sengkang Methodist Children Centre,Kindergartens,545056,31 Anchorvale Road,1.3922202253184,103.886426502071,school.gif
Seventh-day Adventist Kindergarten,Kindergartens,609648,90 Jurong East Street 13,1.33557404138971,103.73811851831,school.gif
Shalom Kindergarten,Kindergartens,509025,4 Loyang Besar Close,1.37843836112564,103.958174532449,school.gif
Singapore Hokkien Huay Kuan Pre-School,Kindergartens,466781,5 Sennett Road,1.3156366867206,103.938413823548,school.gif
Soka Kindergarten,Kindergartens,528888,7 Tampines Street 92,1.34463290496078,103.943349428312,school.gif
Sri Sathya Sai Kindergarten,Kindergartens,510716,716 Pasir Ris St 72 #01-09,1.38310156402033,103.93673258097,school.gif
St. Anne's Church Kindergarten,Kindergartens,548593,66 Sengkang East Way,1.39188938660764,103.901675482455,school.gif
St. Francis Of Assisi Kindergarten (Boon Lay),Kindergartens,649964,200 Boon Lay Avenue,1.3479017381122,103.710984438404,school.gif
St. Francis Of Assisi Kindergarten (Jurong West),Kindergartens,649368,47 Jurong West Street 42,1.35135367421172,103.716391798561,school.gif
St. Francis Xavier Kindergarten,Kindergartens,558758,63A Chartwell Drive,1.35864949579806,103.863529970358,school.gif
St. Hilda's Church Kindergarten,Kindergartens,429740,83 Ceylon Road,1.30780886537826,103.900785598733,school.gif
St. James' Church Kindergarten,Kindergartens,267828,1 Leedon Road,1.31286096637294,103.796123266478,school.gif
St. James' Church Kindergarten (Gilstead),Kindergartens,309070,25 Gilstead Road,1.31669293009592,103.838323725375,school.gif
St. James' Church Kindergarten (Harding),Kindergartens,249537,29 Harding Road,1.30444956358397,103.812222955725,school.gif
St. Joseph's Church Kindergarten,Kindergartens,679331,600 Upper Bukit Timah Road,1.3678017328392,103.768095681712,school.gif
St. Paul's Church Kindergarten,Kindergartens,534682,839 Upper Serangoon Road,1.35857807983784,103.881854278856,school.gif
St. Vincent De Paul Kindergarten,Kindergartens,550536,536 Serangoon North Ave 4 #01-187,1.37353761780806,103.875090676588,school.gif
Starland Kindergarten,Kindergartens,461029,29A Chai Chee Avenue #01-74,1.32470110613965,103.923851967398,school.gif
Summer Montessori,Kindergartens,618593,The Agape 21 Yung Ho Road #01-04,1.32696553373981,103.724646634457,school.gif
Sunshine Kindergarten (Watten),Kindergartens,267211,66 Namly Place,1.32402561985017,103.79678658985,school.gif
Swallows And Amazons Kindergarten,Kindergartens,287994,200 Turf Club Road,1.33899462699318,103.793133806944,school.gif
The Ascension Kindergarten,Kindergartens,359338,11 Francis Thomas Drive,1.33028062072756,103.866401830857,school.gif
The Capstone Kindergarten,Kindergartens,98716,61 Wishart Road,1.26936977587333,103.814634076245,school.gif
The Little House (Montessori) Kindergarten,Kindergartens,599968,Bowland Blk 1 Brookvale Drive #01-07,1.33079294807794,103.767477413743,school.gif
The Montessori Playroom Kindergarten,Kindergartens,530806,806 Hougang Central #04-144,1.37107838895267,103.89410008795,school.gif
Thomson Road Baptist Kindergarten,Kindergartens,307584,45 Thomson Road,1.31486728618646,103.844295028715,school.gif
Toa Payoh Methodist Church Kindergarten,Kindergartens,319641,480 Lorong 2 Toa Payoh,1.33409620597309,103.846449867758,school.gif
Tots Club Preschool,Kindergartens,640727,727 Jurong West Ave 5 #B1-182,1.34578288643183,103.697658654286,school.gif
Totsville Montessori Kindergarten,Kindergartens,510720,720 Pasir Ris Street 72 01-105,1.3817859609192,103.936411754031,school.gif
Totsville Montessori Kindergarten (Bishan),Kindergartens,570230,230 Bishan Street 23 #B1-35,1.35794579896956,103.845493593958,school.gif
Totsville Montessori Preschool,Kindergartens,560340,340 Ang Mo Kio Ave 1 #01-1687,1.36445048918861,103.84946401992,school.gif
TPBC Kindergarten,Kindergartens,536698,20 Lorong Ah Soo,1.35058735735798,103.880451217871,school.gif
True Way Presbyterian Kindergarten,Kindergartens,148947,156B Stirling Road,1.29372737995427,103.805684881282,school.gif
Tung Ling Kindergarten,Kindergartens,449274,145 Marine Parade,1.30451985721567,103.906370026138,school.gif
Two By Two Schoolhouse,Kindergartens,425500,Bright Centre 55 Lor L Telok Kurau #03-61,1.31182050214657,103.91055724291,school.gif
Wee Care Kindergarten,Kindergartens,247964,56 Tanglin Road #02-03,1.30561166302195,103.82296294546,school.gif
White Lodge Bukit Timah Pte Ltd,Kindergartens,288712,39 Linden Drive,1.33238991560995,103.801672371245,school.gif
White Lodge Kindergarten (East Coast),Kindergartens,399719,102 Guillemard Road #02-01,1.31001206135023,103.882409414559,school.gif
White Lodge Kindergarten (Phoenix Park),Kindergartens,247975,310 Tanglin Road,1.29855564630799,103.814673178198,school.gif
White Lodge Kindergarten (Upper East Coast),Kindergartens,507889,36 Toh Drive,1.36495701081143,103.97165729174,school.gif
White Lodge Upper Bukit Timah Pte Ltd,Kindergartens,678541,Fuyoung Estate 1 Jalan Siap,1.35993292324799,103.768482871873,school.gif
White Lodge West Coast Pte Ltd,Kindergartens,118141,9 South Buona Vista Road,1.28013029246683,103.786259570334,school.gif
Yio Chu Kang Chapel Kindergarten,Kindergartens,545671,242 Yio Chu Kang Road,1.36799818192716,103.876359608674,school.gif
Zion Bishan Kindergarten,Kindergartens,579792,4 Bishan Street 13,1.34709066317307,103.854878359659,school.gif
Zion Kindergarten,Kindergartens,555108,3 & 5 Tavistock Avenue,1.36733995362926,103.86215911882,school.gif
Zulfa Kindergarten,Kindergartens,640717,717 Jurong West Street 71 #B1-107,1.34303495128601,103.697500889809,school.gif
Zulfa Kindergarten @ Choa Chu Kang,Kindergartens,680445,445 Choa Chu Kang Avenue 4 #01-307,1.38170882577146,103.736662616157,school.gif
