NAME,DESCRIPTION,BLK_HOUSE,STR_NAME,UNIT_NO,POSTCODE,Lat,Lng,ICON_NAME
LI LI CHENG SUPERMARKET (PUNGGOL) PTE. LTD.,NE12I65N000,273C,PUNGGOL PLACE,884,823273,1.40230300615945,103.901262393433,supermarketlogo.jpg
SHENG SIONG SUPERMARKET PTE LTD,E73010V000,11,UPPER BOON KENG ROAD,901,380011,1.31423937057047,103.870914035563,supermarketlogo.jpg
COLD STORAGE SINGAPORE (1983) PTE LTD,NE11909C000,683,HOUGANG AVENUE 8,903,530683,1.3733212172841,103.886365538231,supermarketlogo.jpg
COLD STORAGE SINGAPORE (1983) PTE LTD,S02210X000,631,BEDOK RESERVOIR ROAD,954,470631,1.3329587272309,103.914941831132,supermarketlogo.jpg
YES SUPERMARKET PTE LTD,S02037J000,201B,TAMPINES STREET 21,1091,522201,1.35345315592225,103.953009921086,supermarketlogo.jpg
SUZYAMEER FROZEN PTE. LTD.,NE08357A000,201D,TAMPINES STREET 21,1161,524201,1.35226231253931,103.95358649775,supermarketlogo.jpg
G8 MART PTE. LTD.,CE13401C000,421,ANG MO KIO AVENUE 10,1161,560421,1.36538421638439,103.852966963093,supermarketlogo.jpg
SHENG SIONG SUPERMARKET PTE LTD,CE04334P000,233,ANG MO KIO AVENUE 3,1168,560233,1.36754924783084,103.83674063794,supermarketlogo.jpg
PRIME SUPERMARKET (1996) PTE LTD,S02059X000,106,HOUGANG AVENUE 1,1213,530106,1.35370296933733,103.890680794853,supermarketlogo.jpg
TAN KWEE ENG,B02041C000,327,YISHUN RING ROAD,1320,760327,1.43007109706807,103.842396448241,supermarketlogo.jpg
SHENG SIONG SUPERMARKET PTE LTD,B02015J000,122,ANG MO KIO AVENUE 3,1753,560122,1.3701886043625,103.843413241014,supermarketlogo.jpg
KAI SOON SUPERMARKET PTE. LTD.,W03223N000,780,YISHUN RING ROAD,3546,760780,1.42213865028433,103.832882666076,supermarketlogo.jpg
COLD STORAGE SINGAPORE (1983) PTE LTD,NW08141P000,41,SUNSET WAY,01A,597071,1.32325040085144,103.767260053848,supermarketlogo.jpg
THE FISHWIVES PTE. LTD.,W02430L000,501,BUKIT TIMAH ROAD,05B,259760,1.32257317593847,103.814245545298,supermarketlogo.jpg
PRIME SUPERMARKET LIMITED,SE04040C000,1,UPPER ALJUNIED LANE,1,360001,1.33429241375195,103.87874621482,supermarketlogo.jpg
ABEDIN TRADING PTE. LTD.,SE15464L000,599,GEYLANG ROAD,1,389538,1.31420654866153,103.886699759329,supermarketlogo.jpg
COLD STORAGE SINGAPORE (1983) PTE LTD,SE07216L000,5,STADIUM WALK,1,397693,1.30222178109552,103.876152670397,supermarketlogo.jpg
COLD STORAGE SINGAPORE (1983) PTE LTD,W02074L000,238,THOMSON ROAD,28/29,307683,1.32021101601675,103.843656771807,supermarketlogo.jpg
SONG FISH DEALER PTE LTD,NW17069X000,17,PETIR ROAD,3,678278,1.37834971351323,103.762741183479,supermarketlogo.jpg
THE SEAFOOD MARKET PLACE (BY SONG FISH) PTE. LTD.,NW18310J000,676,WOODLANDS DRIVE 71,4,730676,1.43991607901426,103.800701205041,supermarketlogo.jpg
SHENG SIONG SUPERMARKET PTE LTD,CE12096L000,1,JALAN BERSEH,3/22,209037,1.30778510070706,103.857010987509,supermarketlogo.jpg
COLD STORAGE SINGAPORE (1983) PTE LTD,W02073N000,163,TANGLIN ROAD,2/3,247933,1.30484344487426,103.823852799187,supermarketlogo.jpg
BLUEWATER SEAFOOD PTE. LTD.,CE18D64L000,8D,DEMPSEY ROAD,1,249672,1.30344597442988,103.80938167216,supermarketlogo.jpg
WONS BUTCHERY PTE. LTD.,CE18G34E000,1,ST. MARTIN'S DRIVE,1,257988,1.30570970646179,103.824463823195,supermarketlogo.jpg
LITTLE FARMS PTE. LTD.,CE18I13C000,3,LORONG LIPUT,4,277725,1.31064350283582,103.795246166645,supermarketlogo.jpg
B & S MINI MART PTE. LTD.,CE14Q85A000,310,GEYLANG ROAD,NA,389349,1.31245104539871,103.87962231543,supermarketlogo.jpg
"CHEE MIN KUAN, SIMON",SE14965K000,342,TANJONG KATONG ROAD,NA,437112,1.30373373435466,103.896498243508,supermarketlogo.jpg
JSJ CORPORATION PTE. LTD.,SE17345J000,31A,TANAH MERAH COAST ROAD,1,498720,1.31845201086353,103.985869406123,supermarketlogo.jpg
U STARS PTE. LTD.,NE04092A000,625,ELIAS ROAD,302,510625,1.37860238037503,103.941978177656,supermarketlogo.jpg
LOTTE MART PTE. LTD.,SW06806E000,17,LORONG KILAT,2,598139,1.34082661486743,103.774213263461,supermarketlogo.jpg
AJMAL TRADING GROUP PTE. LTD.,SW16B52K000,5,JALAN PAPAN,32,619396,1.32210836314021,103.727480745718,supermarketlogo.jpg
MURUGAN TRADERS PTE LTD,SW18B79P000,9,TRACTOR ROAD,NA,627970,1.32491980413317,103.705099705855,supermarketlogo.jpg
SHENG SIONG SUPERMARKET PTE LTD,SW18A30L000,440,BUKIT BATOK WEST AVENUE 8,10,650440,1.35572307607651,103.739303106346,supermarketlogo.jpg
SHENG SIONG SUPERMARKET PTE LTD,NW18649C000,785E,WOODLANDS RISE,1,735785,1.44680413155135,103.80548757912,supermarketlogo.jpg
AJMAL TRADING GROUP PTE. LTD.,NW15489B000,2,WOODLANDS SECTOR 2,5,737723,1.46152554782754,103.809438952915,supermarketlogo.jpg
SHENG SIONG SUPERMARKET PTE LTD,NW18478E000,675,YISHUN AVENUE 4,10,760675,1.42015550315781,103.843558892177,supermarketlogo.jpg
PHAN NEE TRADING LLP,NW08337X000,2B,YISHUN AVENUE 7,1,768929,1.4443412952404,103.839030200378,supermarketlogo.jpg
HAO MART PTE. LTD.,NE18667L000,658,PUNGGOL EAST,1,820658,1.39990420413757,103.919352755684,supermarketlogo.jpg
THE SEAFOOD MARKET PLACE (BY SONG FISH) PTE. LTD.,NE18529J000,681,PUNGGOL DRIVE,9,820681,1.40287845138627,103.913195747038,supermarketlogo.jpg
COLD STORAGE SINGAPORE (1983) PTE LTD,S02169J000,525,ANG MO KIO AVENUE 10,2401,560525,1.37264569542777,103.853890711284,supermarketlogo.jpg
PAN PACIFIC INTERNATIONAL HOLDINGS PTE. LTD.,CE18A78X000,100,TRAS STREET,1/5,79027,1.27458822422728,103.843470740865,supermarketlogo.jpg
COLD STORAGE SINGAPORE (1983) PTE LTD,SE11505P000,291,JOO CHIAT ROAD,1,427543,1.30982227398559,103.902232496984,supermarketlogo.jpg
SHENG SIONG SUPERMARKET PTE LTD,NE17700J000,660A,EDGEDALE PLAINS,1,821660,1.40262196510476,103.916519601442,supermarketlogo.jpg
VIVA CORP SERVICES PTE. LTD.,NE14190K000,23,KAKI BUKIT ROAD 3,2,415812,1.33733862368542,103.903735085122,supermarketlogo.jpg
SWISS BUTCHERY (2013) PRIVATE LIMITED,CE07705A000,30,GREENWOOD AVENUE,NA,289230,1.33176109907579,103.806586886276,supermarketlogo.jpg
ROSWELL ENTERPRISE PTE LTD,B03078N000,34,GREENWOOD AVENUE,NA,289236,1.33183240808538,103.806492419384,supermarketlogo.jpg
T S J INDUSTRIAL (S) PTE. LTD.,SW14484J000,48,TOH GUAN ROAD EAST,130,608586,1.33683097371867,103.75434143082,supermarketlogo.jpg
COLD STORAGE SINGAPORE (1983) PTE LTD,E02196C000,80,MARINE PARADE ROAD,27/62,449269,1.30119131472187,103.905113590458,supermarketlogo.jpg
COLD STORAGE SINGAPORE (1983) PTE LTD,CE14G73B000,12,KALLANG AVENUE,47,339511,1.30974242012866,103.864101650514,supermarketlogo.jpg
COLD STORAGE SINGAPORE (1983) PTE LTD,SE14875L000,11,TANJONG KATONG ROAD,36,437157,1.31469214115978,103.894480527876,supermarketlogo.jpg
COLD STORAGE SINGAPORE (1983) PTE LTD,SW08807K000,154,WEST COAST ROAD,NA,127371,1.30358269052594,103.76528451751,supermarketlogo.jpg
COLD STORAGE SINGAPORE (1983) PTE LTD,SW12J97L000,1,VISTA EXCHANGE GREEN,NA,138617,1.30684882667818,103.788214538525,supermarketlogo.jpg
FOODIE MARKET PLACE PTE. LTD.,CE10I13B000,225,OUTRAM ROAD,NA,169038,1.28345077313013,103.835371310094,supermarketlogo.jpg
MUSTAFA HOLDINGS PTE LTD,W03142N000,147,SYED ALWI ROAD,NA,207706,1.30975274714546,103.855701594507,supermarketlogo.jpg
SUPERNATURE PTE LTD,CE13539N000,583,ORCHARD ROAD,NA,238884,1.30619579913532,103.828509016301,supermarketlogo.jpg
HUBER'S PTE. LTD.,CE15F60K000,22,DEMPSEY ROAD,NA,249679,1.30679240718754,103.810185824202,supermarketlogo.jpg
MEAT THE BUTCHER PTE. LTD.,C00033N000,615,BUKIT TIMAH ROAD,NA,269716,1.32437350966463,103.809357938829,supermarketlogo.jpg
YEO KENG GUAN,C02052N000,5,RIDGEWOOD CLOSE,NA,276696,1.31661898336453,103.778947263616,supermarketlogo.jpg
COLD STORAGE SINGAPORE (1983) PTE LTD,C02025V000,293,HOLLAND ROAD,NA,278628,1.31756196835644,103.785840623813,supermarketlogo.jpg
COLD STORAGE SINGAPORE (1983) PTE LTD,CE09685B000,20,GREENWOOD AVENUE,NA,289215,1.3314914715562,103.806809259373,supermarketlogo.jpg
COLD STORAGE SINGAPORE (1983) PTE LTD,NW04015N000,291,YISHUN STREET 22,389/3,760291,1.43576080071655,103.836723882475,supermarketlogo.jpg
CHD @ SOON LEE PTE. LTD.,SW08A55C000,51,SOON LEE ROAD,51A,628088,1.33212290136628,103.699070270739,supermarketlogo.jpg
SHENG SIONG SUPERMARKET PTE LTD,C02050X000,3,YUAN CHING ROAD,NA,618642,1.32546808409855,103.725221546037,supermarketlogo.jpg
MD SYDUR RAHMAN,SW08047V000,13,TUAS SOUTH STREET 5,1,637555,1.29501368647394,103.626729263079,supermarketlogo.jpg
7SEVEN PTE. LTD.,NW14561E000,51,NORTH COAST AVENUE,3,756992,1.45605972594988,103.786436916899,supermarketlogo.jpg
COLD STORAGE SINGAPORE (1983) PTE LTD,SW17E56V000,1,FUSIONOPOLIS WAY,3,138632,1.29929406658312,103.787404060028,supermarketlogo.jpg
SHENG SIONG SUPERMARKET PTE LTD,NW18021V000,105,CANBERRA STREET,5,750105,1.44886402051704,103.832392856092,supermarketlogo.jpg
U STARS PTE. LTD.,NW17990N000,691,WOODLANDS DRIVE 73,6,730691,1.44062992233001,103.806198058319,supermarketlogo.jpg
SHENG SIONG SUPERMARKET PTE LTD,CE17Q33A000,338,ANCHORVALE CRESCENT,11,540338,1.39922856580931,103.889653921063,supermarketlogo.jpg
SHENG SIONG SUPERMARKET PTE LTD,CE17Q32B000,417,FERNVALE LINK,11,790417,1.39158704139214,103.879872489529,supermarketlogo.jpg
BHANDARI INTERNATIONAL PTE. LTD.,NW17277E000,280,WOODLANDS INDUSTRIAL PARK E5 (PART OF),47,757322,1.45132505304739,103.791095177079,supermarketlogo.jpg
SHENG SIONG SUPERMARKET PTE LTD,NW17734V000,4,WOODLANDS STREET 12,61,738623,1.43351253350403,103.779746864012,supermarketlogo.jpg
WAN SIEW YOONG,W02099P000,4,SAGO LANE,103,50004,1.28180062455801,103.842908168065,supermarketlogo.jpg
HAO MART PTE. LTD.,CE17M26A000,17,JALAN TENTERAM,128,321017,1.3282116947432,103.859812582011,supermarketlogo.jpg
MCP FAIRMART PTE LTD,J92067N000,BLK 371,BUKIT BATOK STREET 31,324,650371,1.35925940699667,103.75069463728,supermarketlogo.jpg
HAO MART PTE. LTD.,CE17M36X000,146,JALAN BUKIT MERAH,1074,160146,1.27784876908556,103.830811469037,supermarketlogo.jpg
PAN PACIFIC INTERNATIONAL HOLDINGS PTE. LTD.,CE17L45A000,181,ORCHARD ROAD,1/3,238896,1.3008389164153,103.839434735426,supermarketlogo.jpg
COLD STORAGE SINGAPORE (1983) PTE LTD,SE14A83A000,60,PAYA LEBAR ROAD,1/5,409051,1.31867575851382,103.892550605327,supermarketlogo.jpg
COLD STORAGE SINGAPORE (1983) PTE LTD,CE07569B000,370,ALEXANDRA ROAD,3/7,159953,1.2886146910195,103.805009970565,supermarketlogo.jpg
COLD STORAGE SINGAPORE (1983) PTE LTD,NW08314K000,930,YISHUN AVENUE 2,6/7,769098,1.42969848150358,103.835776497586,supermarketlogo.jpg
COLD STORAGE SINGAPORE (1983) PTE LTD,S02024X000,205,HOUGANG STREET 21,133,530205,1.35949663830554,103.885079928732,supermarketlogo.jpg
SHENG SIONG SUPERMARKET PTE LTD,SW05051J000,720,CLEMENTI WEST STREET 2,144,120720,1.30246409193291,103.763750974319,supermarketlogo.jpg
PRIME SUPERMARKET LIMITED,E02042P000,803,KING GEORGE'S AVENUE,154,200803,1.3083652684116,103.860912787999,supermarketlogo.jpg
PRIME SUPERMARKET LIMITED,S02040X000,823,TAMPINES STREET 81,160,520823,1.34873284070164,103.934010241001,supermarketlogo.jpg
COLD STORAGE SINGAPORE (1983) PTE LTD,S02038E000,829,TAMPINES STREET 81,284/8,520829,1.34922418771454,103.934912522809,supermarketlogo.jpg
COLD STORAGE SINGAPORE (1983) PTE LTD,NW11384E000,1,WOODLANDS SQUARE,31/32,738099,1.43600783793646,103.785688733844,supermarketlogo.jpg
COLD STORAGE SINGAPORE (1983) PTE LTD,B02035A000,548,WOODLANDS DRIVE 44,37/38,730548,1.43084006633623,103.793416332651,supermarketlogo.jpg
LIN POH LING,SE06616X000,212,LORONG 8 TOA PAYOH,43/45,310212,1.34064293307986,103.854334496723,supermarketlogo.jpg
COLD STORAGE SINGAPORE (1983) PTE LTD,SE10579K000,23,SERANGOON CENTRAL,44/45,556083,1.35067551423916,103.871861623795,supermarketlogo.jpg
COLD STORAGE SINGAPORE (1983) PTE LTD,W02075K000,230,VICTORIA STREET,16,188024,1.30014248326866,103.855786976518,supermarketlogo.jpg
"NAWAS GLOBAL PTE. LTD.",SW16224E000,3,TUAS SOUTH STREET 12,16,636947,1.27164226263376,103.633512282372,supermarketlogo.jpg
SADIA MINIMART PTE LTD,NW15751L000,11,MANDAI ESTATE,16,729908,1.40852996570468,103.759406170784,supermarketlogo.jpg
MEIDI-YA SINGAPORE CO (PTE) LTD,W02094C000,177,RIVER VALLEY ROAD,17,179030,1.29151478613339,103.844586298874,supermarketlogo.jpg
IROHA INTERNATIONAL PTE. LTD.,CE16I13V000,68,ORCHARD ROAD,17,238839,1.30074756196423,103.845047628503,supermarketlogo.jpg
COLD STORAGE SINGAPORE (1983) PTE LTD,W02096A000,81,CLEMENCEAU AVENUE,18,239917,1.29225958853816,103.842561031003,supermarketlogo.jpg
LITTLE FARMS PTE. LTD.,CE05380X000,491,RIVER VALLEY ROAD,20,248371,1.29301786111443,103.826940812301,supermarketlogo.jpg
SHENG SIONG SUPERMARKET PTE LTD,C02080E000,61,TEBAN GARDENS ROAD,21,600061,1.32213636288701,103.738292804658,supermarketlogo.jpg
PHAN NEE INVESTMENTS (S) PTE LTD,SW16E98J000,500,OLD CHOA CHU KANG ROAD,21,698924,1.37761083897742,103.718403752899,supermarketlogo.jpg
COLD STORAGE SINGAPORE (1983) PTE LTD,SE14377P000,430,UPPER CHANGI ROAD,47,487048,1.33177581668164,103.946201244496,supermarketlogo.jpg
RAW MARKET PTE. LTD.,NE15760A000,11,PASIR RIS LINK,48,518180,1.37558830763911,103.960839727952,supermarketlogo.jpg
THE BUTCHER (SINGAPORE) PTE. LTD.,B03074A000,44,JALAN MERAH SAGA,50,278116,1.3119219563809,103.796844046992,supermarketlogo.jpg
HAO MART PTE. LTD.,B85098V000,239,YISHUN RING ROAD,1150,760239,1.43359514246154,103.839685380422,supermarketlogo.jpg
SEOUL BUTCHERY PTE. LTD.,SW18715E000,13,YUK TONG AVENUE,NA,596318,1.34207496300068,103.774632799754,supermarketlogo.jpg
V SURESH KUMAR,NW12H40C000,51,ADMIRALTY ROAD WEST - LODGE 1,NA,757443,1.45982817398421,103.820073449022,supermarketlogo.jpg
COLD STORAGE SINGAPORE (1983) PTE LTD,W02140C000,200,TURF CLUB ROAD,NA,287994,1.33899462247146,103.793133813234,supermarketlogo.jpg
HAO MART PTE. LTD.,SE18184V000,448/450,GEYLANG ROAD,NA,389407,1.31317509715873,103.883646674404,supermarketlogo.jpg
COLD STORAGE SINGAPORE (1983) PTE LTD,W02070V000,290,ORCHARD ROAD,14/15,238859,1.30372322367268,103.835240311923,supermarketlogo.jpg
COLD STORAGE SINGAPORE (1983) PTE LTD,CE17J36N000,5,STRAITS VIEW,15/16,18935,1.27737236043423,103.852844804264,supermarketlogo.jpg
COLD STORAGE SINGAPORE (1983) PTE LTD,W02088A000,68,ORCHARD ROAD,15/16,238839,1.30074756196423,103.845047628503,supermarketlogo.jpg
COLD STORAGE SINGAPORE (1983) PTE LTD,W02068J000,1,KIM SENG PROMENADE,18/19,237994,1.29380236091495,103.831757911005,supermarketlogo.jpg
POPULAR SUPERMARKET PTE LTD,SW16942C000,12,TUAS SOUTH STREET 13,18/19,636937,1.27030978388319,103.634163915466,supermarketlogo.jpg
SADIA SUPERMARKET & TRADING (S) PTE. LTD.,SW16901A000,12,TUAS SOUTH STREET 13,20/21,636937,1.27030978388319,103.634163915466,supermarketlogo.jpg
COLD STORAGE SINGAPORE (1983) PTE LTD,SW12N25V000,31,OCEAN WAY,26/27,98375,1.24775861864545,103.841921096861,supermarketlogo.jpg
COLD STORAGE SINGAPORE (1983) PTE LTD,CE10B87J000,383,BUKIT TIMAH ROAD,09A,259727,1.31943617521461,103.82734585139,supermarketlogo.jpg
COLD STORAGE SINGAPORE (1983) PTE LTD,B02011P000,524A,JELAPANG ROAD,13/18,671524,1.38529556248789,103.766170532015,supermarketlogo.jpg
COLD STORAGE SINGAPORE (1983) PTE LTD,CE09512V000,512,BISHAN STREET 13,524,570512,1.34962234403109,103.849881701299,supermarketlogo.jpg
NTUC FAIRPRICE CO-OPERATIVE LTD,S02051L000,192,LORONG 4 TOA PAYOH,672,310192,1.33166183429417,103.850483008706,supermarketlogo.jpg
NTUC FAIRPRICE CO-OPERATIVE LTD,S02052K000,475,TAMPINES STREET 44,145,520475,1.36032331726567,103.953125974102,supermarketlogo.jpg
NTUC FAIRPRICE CO-OPERATIVE LTD,S02053J000,107,TAMPINES STREET 11,353/9,521107,1.34837104824236,103.948128932393,supermarketlogo.jpg
NTUC FAIRPRICE CO-OPERATIVE LTD,S02054E000,11,RIVERVALE CRESCENT,1,545082,1.39219777362583,103.90447160757,supermarketlogo.jpg
NTUC FAIRPRICE CO-OPERATIVE LTD,S02055C000,118,RIVERVALE DRIVE,8,540118,1.38493201671183,103.901558027563,supermarketlogo.jpg
NTUC FAIRPRICE CO-OPERATIVE LTD,S02056B000,301,UPPER THOMSON ROAD,25,574408,1.35466901882051,103.830919788426,supermarketlogo.jpg
NTUC FAIRPRICE CO-OPERATIVE LTD,S02103A000,500,LORONG 6 TOA PAYOH,NA,310500,1.33296549379038,103.847050353797,supermarketlogo.jpg
NTUC FAIRPRICE CO-OPERATIVE LTD,S91085V000,110,LENGKONG TIGA,233/5,410110,1.32397688357175,103.910689656957,supermarketlogo.jpg
NTUC FAIRPRICE CO-OPERATIVE LTD,S94081C000,279,BISHAN STREET 24,62/64,570279,1.35722282377111,103.843785259758,supermarketlogo.jpg
NTUC FAIRPRICE CO-OPERATIVE LTD,S98084K000,734,PASIR RIS STREET 72,37,510734,1.37976753619581,103.936207570696,supermarketlogo.jpg
NTUC FAIRPRICE CO-OPERATIVE LTD,SE04012L000,2,JOO CHIAT ROAD,1139,420002,1.31553964712804,103.898764898642,supermarketlogo.jpg
NTUC FAIRPRICE CO-OPERATIVE LTD,SE04130B000,41,JALAN TIGA,5,390041,1.30782737247273,103.884763855717,supermarketlogo.jpg
NTUC FAIRPRICE CO-OPERATIVE LTD,SE07559P000,65,AIRPORT BOULEVARD,10,819663,1.35437073798267,103.985169647877,supermarketlogo.jpg
NTUC FAIRPRICE CO-OPERATIVE LTD,SE09706N000,5,EUNOS CRESCENT,2619,400005,1.32118979604503,103.903266275569,supermarketlogo.jpg
NTUC FAIRPRICE CO-OPERATIVE LTD,SE10564B000,23,SERANGOON CENTRAL,42,556083,1.35067551423916,103.871861623795,supermarketlogo.jpg
NTUC FAIRPRICE CO-OPERATIVE LTD,SE11071C000,89,BEDOK NORTH STREET 4,77/79,460089,1.33233467983413,103.938051292004,supermarketlogo.jpg
NTUC FAIRPRICE CO-OPERATIVE LTD,SE11577E000,612-620,GEYLANG ROAD,NA,389551,1.31414996835354,103.888544913634,supermarketlogo.jpg
NTUC FAIRPRICE CO-OPERATIVE LTD,SE11947P000,5,CHANGI BUSINESS PARK CENTRAL 1,8/11,486038,1.3343251542009,103.962389306789,supermarketlogo.jpg
NTUC FAIRPRICE CO-OPERATIVE LTD,SE12G19X000,8,CHANGI BUSINESS PARK AVENUE 1,NA,486018,1.33491977399192,103.963653907777,supermarketlogo.jpg
NTUC FAIRPRICE CO-OPERATIVE LTD,SE13135L000,311,NEW UPPER CHANGI ROAD,60,467360,1.32477207902253,103.929267657363,supermarketlogo.jpg
NTUC FAIRPRICE CO-OPERATIVE LTD,SE13S71X000,57,NEW UPPER CHANGI ROAD,1334,461057,1.32424554991112,103.9415687075,supermarketlogo.jpg
NTUC FAIRPRICE CO-OPERATIVE LTD,SE13U39E000,60,AIRPORT BOULEVARD,29,819643,1.3551909440899,103.988750977656,supermarketlogo.jpg
NTUC FAIRPRICE CO-OPERATIVE LTD,SE13U91V000,30,EAST COAST ROAD,6/9,428751,1.30385030848158,103.902850380057,supermarketlogo.jpg
NTUC FAIRPRICE CO-OPERATIVE LTD,SE14441L000,6,POTONG PASIR AVENUE 2,1,358361,1.33253590792541,103.867036838441,supermarketlogo.jpg
NTUC FAIRPRICE CO-OPERATIVE LTD,SE14467N000,1,STADIUM PLACE,29,397628,1.30384327849927,103.872750707738,supermarketlogo.jpg
NTUC FAIRPRICE CO-OPERATIVE LTD,SE14775X000,3,SIMEI STREET 6,1,528833,1.34270618915228,103.953024500232,supermarketlogo.jpg
NTUC FAIRPRICE CO-OPERATIVE LTD,SE16122V000,401,MACPHERSON ROAD,22/29,368125,1.33177055027825,103.879294502591,supermarketlogo.jpg
NTUC FAIRPRICE CO-OPERATIVE LTD,SE17082P000,18,TAI SENG STREET,13,539775,1.33653867658135,103.888762709438,supermarketlogo.jpg
NTUC FAIRPRICE CO-OPERATIVE LTD,SE17481P000,10,EUNOS ROAD 8,101,408600,1.31886941200841,103.894731355106,supermarketlogo.jpg
JMD RETAIL PTE. LTD.,SE18544L000,330,TANJONG KATONG ROAD,NA,437106,1.3041644719774,103.896327021939,supermarketlogo.jpg
NTUC FAIRPRICE CO-OPERATIVE LTD,SW04158X000,108,DEPOT ROAD,1,100108,1.28112227851946,103.8100313205,supermarketlogo.jpg
COLD STORAGE SINGAPORE (1983) PTE LTD,SW06590A000,1,HARBOURFRONT WALK,23,98585,1.26389581950121,103.821589250415,supermarketlogo.jpg
NTUC FAIRPRICE CO-OPERATIVE LTD,SW07481A000,28,DOVER CRESCENT,83,130028,1.30476357340306,103.781697201377,supermarketlogo.jpg
NTUC FAIRPRICE CO-OPERATIVE LTD,SW08821N000,140,TECK WHYE LANE,351,680140,1.38003057765068,103.75311841662,supermarketlogo.jpg
NTUC FAIRPRICE CO-OPERATIVE LTD,SW08A59X000,63,JURONG WEST CENTRAL 3,NA,648331,1.33931503939035,103.705351000578,supermarketlogo.jpg
NTUC FAIRPRICE CO-OPERATIVE LTD,SW09032C000,21,CHOA CHU KANG NORTH 6,1/7,689578,1.39730189954737,103.746558069293,supermarketlogo.jpg
NTUC FAIRPRICE CO-OPERATIVE LTD,SW09285K000,61,CHOA CHU KANG DRIVE,1,689715,1.39712885652678,103.747329724589,supermarketlogo.jpg
LAMIAH ENTERPRISE PTE. LTD.,SW09752V000,5,TECH PARK CRESCENT,2,638127,1.31146784739883,103.630340087983,supermarketlogo.jpg
NTUC FAIRPRICE CO-OPERATIVE LTD,SW10A16E000,3155,COMMONWEALTH AVENUE WEST,NA,129588,1.31485322616185,103.764248204763,supermarketlogo.jpg
NTUC FAIRPRICE CO-OPERATIVE LTD,SW11452C000,78A,TELOK BLANGAH STREET 32,1,101078,1.27338252999837,103.808934817338,supermarketlogo.jpg
NTUC FAIRPRICE CO-OPERATIVE LTD,SW11A26P000,460,ALEXANDRA ROAD,NA,119963,1.27367658025919,103.801126955437,supermarketlogo.jpg
NTUC FAIRPRICE CO-OPERATIVE LTD,SW12C98J000,2,JURONG EAST CENTRAL 1,12,609731,1.33326818232541,103.740176741625,supermarketlogo.jpg
NTUC FAIRPRICE CO-OPERATIVE LTD,SW12F58E000,352,CLEMENTI AVENUE 2,141,120352,1.31427860895568,103.771350566042,supermarketlogo.jpg
NTUC FAIRPRICE CO-OPERATIVE LTD,SW12H20A000,498,JURONG WEST STREET 41,NA,640498,1.34833334908052,103.72430732776,supermarketlogo.jpg
NTUC FAIRPRICE CO-OPERATIVE LTD,SW12O05A000,502,WEST COAST DRIVE,41,120502,1.31188596098541,103.759080943921,supermarketlogo.jpg
NTUC FAIRPRICE CO-OPERATIVE LTD,SW13245V000,1,LOWER KENT RIDGE ROAD,16,119082,1.29277432695785,103.784084020187,supermarketlogo.jpg
NTUC FAIRPRICE CO-OPERATIVE LTD,SW13Q24X000,280,BUKIT BATOK EAST AVENUE 3,315,650280,1.34770147779385,103.757044586256,supermarketlogo.jpg
NTUC FAIRPRICE CO-OPERATIVE LTD,SW13T12J000,50,JURONG GATEWAY ROAD,21/22,608549,1.33320021671365,103.743170430901,supermarketlogo.jpg
NTUC FAIRPRICE CO-OPERATIVE LTD,SW14633X000,2,BUKIT BATOK WEST AVENUE 7,10,659003,1.36650698092595,103.746847123122,supermarketlogo.jpg
SHINVA AGRO FOODS PTE. LTD.,SW14824J000,11,TECH PARK CRESCENT,3,638121,1.3110024025961,103.631572325734,supermarketlogo.jpg
NTUC FAIRPRICE CO-OPERATIVE LTD,SW14951X000,1,JOO KOON CIRCLE,21,629117,1.32460665101076,103.67809636872,supermarketlogo.jpg
SHINVA AGRO FOODS PTE. LTD.,SW14B28C000,115,TUAS VIEW WALK 1,NA,637734,1.30091146604893,103.627788892117,supermarketlogo.jpg
NTUC FAIRPRICE CO-OPERATIVE LTD,SW15796X000,533,CHOA CHU KANG STREET 51,11,680533,1.392073879435,103.743099576144,supermarketlogo.jpg
NTUC FAIRPRICE CO-OPERATIVE LTD,SW15968N000,37,TEBAN GARDENS ROAD,NA,600037,1.32052027199062,103.742651522893,supermarketlogo.jpg
PHAN NEE INVESTMENTS (S) PTE LTD,SW16815P000,500,OLD CHOA CHU KANG ROAD,2,698928,1.37193280471552,103.720857418902,supermarketlogo.jpg
NTUC FAIRPRICE CO-OPERATIVE LTD,SW16D83E000,249,JURONG EAST STREET 24,106,600249,1.34259104167685,103.739199499869,supermarketlogo.jpg
THE QUALITYMART DEPOT PTE. LTD.,SW18581V000,180,DEPOT ROAD,4,109684,1.28220136427594,103.803023763143,supermarketlogo.jpg
COLD STORAGE SINGAPORE (1983) PTE LTD,SW18A40J000,35,STUDENTS WALK,NA,639548,1.34813378503649,103.685418471527,supermarketlogo.jpg
SHENG SIONG SUPERMARKET PTE LTD,SW18F69X000,451,BUKIT BATOK WEST AVENUE 6,10,650451,1.35303824733614,103.743948448003,supermarketlogo.jpg
HONESTBEE PTE. LTD.,SW18G66X000,34,BOON LEAT TERRACE,NA,119866,1.27604519475402,103.797187338711,supermarketlogo.jpg
NTUC FAIRPRICE CO-OPERATIVE LTD,W02072P000,302,TIONG BAHRU ROAD,1,168732,1.28646345680433,103.826935081592,supermarketlogo.jpg
NTUC FAIRPRICE CO-OPERATIVE LTD,W02083K000,166,BUKIT MERAH CENTRAL,3527,150166,1.28311950277785,103.817642874205,supermarketlogo.jpg
NTUC FAIRPRICE CO-OPERATIVE LTD,W02084J000,360,BALESTIER ROAD,0,329783,1.32512653292631,103.851055636335,supermarketlogo.jpg
NTUC FAIRPRICE CO-OPERATIVE LTD,W02086C000,50,HAVELOCK ROAD,755,160050,1.28977814003505,103.826793758818,supermarketlogo.jpg
NTUC FAIRPRICE CO-OPERATIVE LTD,W02092J000,5,TANJONG PAGAR PLAZA,1,81005,1.27624052975614,103.843006122101,supermarketlogo.jpg
NTUC FAIRPRICE CO-OPERATIVE LTD,W02239E000,131,KILLINEY ROAD,"01,02",239571,1.29727532047679,103.838533933775,supermarketlogo.jpg
NTUC FAIRPRICE CO-OPERATIVE LTD,B02020N000,1,JELEBU ROAD,15,677743,1.38054244056369,103.763993951638,supermarketlogo.jpg
NTUC FAIRPRICE CO-OPERATIVE LTD,B02021L000,30,SEMBAWANG DRIVE,1/3,757713,1.44822653003389,103.819462105427,supermarketlogo.jpg
NTUC FAIRPRICE CO-OPERATIVE LTD,B02022K000,71,WOODLANDS AVENUE 3,1,739044,1.43262602939439,103.774051198699,supermarketlogo.jpg
NTUC FAIRPRICE CO-OPERATIVE LTD,B02024E000,888,WOODLANDS DRIVE 50,757,730888,1.43755656449988,103.79513640221,supermarketlogo.jpg
NTUC FAIRPRICE CO-OPERATIVE LTD,B02025C000,414,YISHUN RING ROAD,1853,760414,1.42452848118598,103.846595550971,supermarketlogo.jpg
NTUC FAIRPRICE CO-OPERATIVE LTD,B02034B000,30,WOODLANDS AVENUE 1,NA,739065,1.42919468259866,103.781136890158,supermarketlogo.jpg
NTUC FAIRPRICE CO-OPERATIVE LTD,B02093B000,301,YISHUN AVENUE 2,2,769093,1.42952522056756,103.83499514286,supermarketlogo.jpg
NTUC FAIRPRICE CO-OPERATIVE LTD,B02099L000,849,YISHUN RING ROAD,3703,760849,1.41698315581696,103.835218187743,supermarketlogo.jpg
NTUC FAIRPRICE CO-OPERATIVE LTD,B03099C000,628,SENJA ROAD,1,670628,1.38509601466743,103.760218439756,supermarketlogo.jpg
NTUC FAIRPRICE CO-OPERATIVE LTD,B98014C000,215,ANG MO KIO AVENUE 1,877,560215,1.36655829857198,103.841624088452,supermarketlogo.jpg
NTUC FAIRPRICE CO-OPERATIVE LTD,B99041L000,1,ORCHID CLUB ROAD,34,769162,1.41103598112316,103.84403989942,supermarketlogo.jpg
NTUC FAIRPRICE CO-OPERATIVE LTD,C02034X000,587,BUKIT TIMAH ROAD,NA,269707,1.32383512680832,103.809999578549,supermarketlogo.jpg
NTUC FAIRPRICE CO-OPERATIVE LTD,C02035P000,451,CLEMENTI AVENUE 3,307,120451,1.31248299329667,103.765476758596,supermarketlogo.jpg
NTUC FAIRPRICE CO-OPERATIVE LTD,C02036N000,1,JALAN ANAK BUKIT,1,588996,1.33865677093942,103.778560473793,supermarketlogo.jpg
NTUC FAIRPRICE CO-OPERATIVE LTD,C02037L000,135,JURONG EAST STREET 13,337,600135,1.33375343289468,103.739371389066,supermarketlogo.jpg
NTUC FAIRPRICE CO-OPERATIVE LTD,C02038K000,1,JURONG WEST CENTRAL 2,9,648886,1.33983014805774,103.706460886826,supermarketlogo.jpg
NTUC FAIRPRICE CO-OPERATIVE LTD,C02040A000,63/66,YUNG KUANG ROAD,NA,610063,1.33205937638185,103.722452888408,supermarketlogo.jpg
NTUC FAIRPRICE CO-OPERATIVE LTD,C02041V000,399,YUNG SHENG ROAD,NA,610399,1.33504201869474,103.720268020639,supermarketlogo.jpg
NTUC FAIRPRICE CO-OPERATIVE LTD,C02053L000,166,BUKIT BATOK WEST AVENUE 8,NA,650166,1.34716235926513,103.74280788296,supermarketlogo.jpg
NTUC FAIRPRICE CO-OPERATIVE LTD,C02104B000,10,BUKIT BATOK CENTRAL,8,659958,1.3487108014327,103.74933452639,supermarketlogo.jpg
NTUC FAIRPRICE CO-OPERATIVE LTD,C85274C000,BLK 345,JURONG EAST STREET 31,29,600345,1.34551209957725,103.731219147651,supermarketlogo.jpg
NTUC FAIRPRICE CO-OPERATIVE LTD,CE04086K000,57,DAWSON ROAD,1,142057,1.29270339832466,103.810958960395,supermarketlogo.jpg
SHENG SIONG SUPERMARKET PTE LTD,CE04561V000,19,SERANGOON NORTH AVENUE 5,1/2,554913,1.37563500165175,103.871996419079,supermarketlogo.jpg
NTUC FAIRPRICE CO-OPERATIVE LTD,CE05295K000,71,KALLANG BAHRU,531,330071,1.32099294995032,103.870389995935,supermarketlogo.jpg
NTUC FAIRPRICE CO-OPERATIVE LTD,CE05487V000,1,JALAN BUKIT MERAH,4500,150001,1.28645354374901,103.80824240096,supermarketlogo.jpg
NTUC FAIRPRICE CO-OPERATIVE LTD,CE06044N000,491,RIVER VALLEY ROAD,14,248371,1.29301786111443,103.826940812301,supermarketlogo.jpg
NTUC FAIRPRICE CO-OPERATIVE LTD,CE06L48L000,10,SINARAN DRIVE,47/48,307506,1.32042967863542,103.843892126913,supermarketlogo.jpg
NTUC FAIRPRICE CO-OPERATIVE LTD,CE06M36N000,53,ANG MO KIO AVENUE 3,40,569933,1.36924890739397,103.848399235571,supermarketlogo.jpg
NTUC FAIRPRICE CO-OPERATIVE LTD,CE07320C000,43,CAMBRIDGE ROAD,15,210043,1.31536303357228,103.849434508531,supermarketlogo.jpg
NTUC FAIRPRICE CO-OPERATIVE LTD,CE07D83B000,5,UPPER BOON KENG ROAD,5,380005,1.31265450087908,103.87254179955,supermarketlogo.jpg
NTUC FAIRPRICE CO-OPERATIVE LTD,CE08015J000,18 /20,KIM TIAN ROAD,NA,169252,1.28480734614992,103.829298011427,supermarketlogo.jpg
NTUC FAIRPRICE CO-OPERATIVE LTD,CE08H32N000,80,LORONG LIMAU,191,320080,1.32379607925067,103.855670628839,supermarketlogo.jpg
NTUC FAIRPRICE CO-OPERATIVE LTD,CE09H10X000,180,KITCHENER ROAD,9/10,208539,1.31139349438913,103.856487121487,supermarketlogo.jpg
NTUC FAIRPRICE CO-OPERATIVE LTD,CE11F41C000,150,SILAT AVENUE,44,160150,1.2770770759001,103.831425859726,supermarketlogo.jpg
"JEWISH WELFARE BOARD, SINGAPORE, THE",CE11H82X000,24,WATERLOO STREET,1,187950,1.29827328917638,103.850599507143,supermarketlogo.jpg
NTUC FAIRPRICE CO-OPERATIVE LTD,CE11M39P000,6,SCOTTS ROAD,NA,228209,1.30585583497044,103.832984361905,supermarketlogo.jpg
NTUC FAIRPRICE CO-OPERATIVE LTD,CE11N90C000,712,ANG MO KIO AVENUE 6,4056,560712,1.37140920462192,103.847082884002,supermarketlogo.jpg
NTUC FAIRPRICE CO-OPERATIVE LTD,CE12H50C000,100,TRAS STREET,1,79027,1.27458822422728,103.843470740865,supermarketlogo.jpg
NTUC FAIRPRICE CO-OPERATIVE LTD,CE13O90C000,20,AH HOOD ROAD,1,329984,1.3270848591504,103.846476465683,supermarketlogo.jpg
NTUC FAIRPRICE CO-OPERATIVE LTD,CE13R25C000,447A,JALAN KAYU,2,791447,1.3921382839313,103.872490556756,supermarketlogo.jpg
COLD STORAGE SINGAPORE (1983) PTE LTD,CE13Z03L000,3,TEMASEK BOULEVARD,NA,38983,1.29487905112125,103.857675501543,supermarketlogo.jpg
NTUC FAIRPRICE CO-OPERATIVE LTD,CE13Z98K000,808,FRENCH ROAD,1,200808,1.30880609469533,103.861311961994,supermarketlogo.jpg
COLD STORAGE SINGAPORE (1983) PTE LTD,CE14G71E000,16,ENGGOR STREET,NA,79717,1.27461794177448,103.8443195557,supermarketlogo.jpg
NTUC FAIRPRICE CO-OPERATIVE LTD,CE14L50J000,33,SENGKANG WEST AVENUE,24,797653,1.39139305725169,103.876067662182,supermarketlogo.jpg
NTUC FAIRPRICE CO-OPERATIVE LTD,CE15695V000,279,SENGKANG EAST AVENUE,6,540279,1.38621835288115,103.892995500981,supermarketlogo.jpg
NTUC FAIRPRICE CO-OPERATIVE LTD,CE15G35E000,20,LENGKOK BAHRU,13,159053,1.28668027234677,103.813766343919,supermarketlogo.jpg
NTUC FAIRPRICE CO-OPERATIVE LTD,CE16K18V000,574,ANG MO KIO AVENUE 10,1847,560574,1.3708945610762,103.856396513475,supermarketlogo.jpg
NTUC FAIRPRICE CO-OPERATIVE LTD,CE17E43B000,410A,SIN MING AVENUE,2,571410,1.36321586107786,103.835445360583,supermarketlogo.jpg
NTUC FAIRPRICE CO-OPERATIVE LTD,CE17K55B000,30,BENDEMEER ROAD,871,330030,1.31909344185792,103.86390532629,supermarketlogo.jpg
NTUC FAIRPRICE CO-OPERATIVE LTD,CE17L02A000,95,LORONG 4 TOA PAYOH,68,310095,1.33889072011391,103.848993319083,supermarketlogo.jpg
SF (313) PTE. LTD.,CE17P14L000,3,TEMASEK BOULEVARD,616,38983,1.29487905112125,103.857675501543,supermarketlogo.jpg
YOUR GROCER PRIVATE LIMITED,CE18R71X000,34,JALAN BUKIT HO SWEE,870,160034,1.28807688301773,103.827081283638,supermarketlogo.jpg
COLD STORAGE SINGAPORE (1983) PTE LTD,CE18T11J000,8A,MARINA BOULEVARD,44-50,18984,1.28022768611886,103.853349301911,supermarketlogo.jpg
PAN PACIFIC INTERNATIONAL HOLDINGS PTE. LTD.,CE18T88K000,180,KITCHENER ROAD,6,208539,1.31139349438913,103.856487121487,supermarketlogo.jpg
NTUC FAIRPRICE CO-OPERATIVE LTD,E02034P000,114,ALJUNIED AVENUE 2,75,380114,1.32176644586798,103.886672786663,supermarketlogo.jpg
NTUC FAIRPRICE CO-OPERATIVE LTD,E02035N000,212,BEDOK NORTH STREET 1,147,460212,1.32594069682932,103.931640028654,supermarketlogo.jpg
NTUC FAIRPRICE CO-OPERATIVE LTD,E02039E000,152B,SERANGOON NORTH AVENUE 1,384,552152,1.36979940182639,103.873035798474,supermarketlogo.jpg
NTUC FAIRPRICE CO-OPERATIVE LTD,E02096K000,6,MARINE PARADE CENTRAL,NA,449411,1.30141955705642,103.907112664975,supermarketlogo.jpg
NTUC FAIRPRICE CO-OPERATIVE LTD,E83157K000,934,EAST COAST ROAD,NA,459125,1.31230752821693,103.92523453825,supermarketlogo.jpg
NTUC FAIRPRICE CO-OPERATIVE LTD,E95315V000,77,CIRCUIT ROAD,464/6,370077,1.32855656927862,103.885349909653,supermarketlogo.jpg
NTUC FAIRPRICE CO-OPERATIVE LTD,E98161V000,239/255,EAST COAST ROAD,NA,428932,1.30836165161607,103.907988815995,supermarketlogo.jpg
NTUC FAIRPRICE CO-OPERATIVE LTD,J02013A000,221,BOON LAY PLACE,200,640221,1.34634819293844,103.712429317152,supermarketlogo.jpg
NTUC FAIRPRICE CO-OPERATIVE LTD,J96145K000,21,CHOA CHU KANG AVENUE 4,3,689812,1.38506836300634,103.744950388654,supermarketlogo.jpg
NTUC FAIRPRICE CO-OPERATIVE LTD,NE04047K000,138,TAMPINES STREET 11,136,521138,1.34528144162057,103.945344294717,supermarketlogo.jpg
NTUC FAIRPRICE CO-OPERATIVE LTD,NE04107V000,168,PUNGGOL FIELD,1,820168,1.394184094795,103.912976438987,supermarketlogo.jpg
NTUC FAIRPRICE CO-OPERATIVE LTD,NE04114A000,866A,TAMPINES STREET 83,1,521866,1.3554217626792,103.934315234757,supermarketlogo.jpg
NTUC FAIRPRICE CO-OPERATIVE LTD,NE08058P000,1,PASIR RIS CLOSE,127,519599,1.37714073427956,103.953599087705,supermarketlogo.jpg
NTUC FAIRPRICE CO-OPERATIVE LTD,NE08150C000,BLK 277C,COMPASSVALE LINK,13,543277,1.38233698021703,103.893607840929,supermarketlogo.jpg
COLD STORAGE SINGAPORE (1983) PTE LTD,NE09027A000,10,TAMPINES CENTRAL 1,1/2,529536,1.35431556438279,103.94501945797,supermarketlogo.jpg
NTUC FAIRPRICE CO-OPERATIVE LTD,NE09263B000,100,HOUGANG AVENUE 10,1,538767,1.37177995742086,103.894165384101,supermarketlogo.jpg
NTUC FAIRPRICE CO-OPERATIVE LTD,NE10310X000,1,MAJU AVENUE,11/14,556679,1.36516070959148,103.865041855148,supermarketlogo.jpg
NTUC FAIRPRICE CO-OPERATIVE LTD,NE12B79A000,612,PUNGGOL DRIVE,6,820612,1.40461002768949,103.908665607626,supermarketlogo.jpg
NTUC FAIRPRICE CO-OPERATIVE LTD,NE15467C000,476,UPPER SERANGOON VIEW,18,530476,1.3774300635181,103.903712868236,supermarketlogo.jpg
NTUC FAIRPRICE CO-OPERATIVE LTD,NE16640E000,51,TAMPINES AVENUE 4,1,528523,1.35349616014431,103.939683594446,supermarketlogo.jpg
U STARS SUPERMARKET PTE. LTD.,NE17390X000,878C,TAMPINES AVENUE 8,65,523878,1.3512641069979,103.929363838846,supermarketlogo.jpg
NTUC FAIRPRICE CO-OPERATIVE LTD,NE17563L000,872C,TAMPINES STREET 86,1,523872,1.35524289885319,103.931623638518,supermarketlogo.jpg
NTUC FAIRPRICE CO-OPERATIVE LTD,NE18169P000,681,PUNGGOL DRIVE,1,820681,1.40287845138627,103.913195747038,supermarketlogo.jpg
NTUC FAIRPRICE CO-OPERATIVE LTD,NW04127A000,900,SOUTH WOODLANDS DRIVE,1,730900,1.43507789397689,103.78661961568,supermarketlogo.jpg
NTUC FAIRPRICE CO-OPERATIVE LTD,NW06546V000,511,CANBERRA ROAD,3,750511,1.45384518800838,103.819543348008,supermarketlogo.jpg
NTUC FAIRPRICE CO-OPERATIVE LTD,NW07277P000,355,SEMBAWANG WAY,1,750355,1.44956647612199,103.818641141782,supermarketlogo.jpg
NTUC FAIRPRICE CO-OPERATIVE LTD,NW08477X000,36,HOLLAND DRIVE,3,270036,1.30918211194726,103.79254748678,supermarketlogo.jpg
SHENG SIONG SUPERMARKET PTE LTD,NW11767E000,1,WOODLANDS ROAD,7,677899,1.38060511575374,103.760041592308,supermarketlogo.jpg
NTUC FAIRPRICE CO-OPERATIVE LTD,NW13K05E000,570B,WOODLANDS AVENUE 1,6,732570,1.43106395014876,103.790454085829,supermarketlogo.jpg
NTUC FAIRPRICE CO-OPERATIVE LTD,NW17097K000,17,PETIR ROAD,67,678278,1.37834971351323,103.762741183479,supermarketlogo.jpg
CUTECH GREEN VENTURES PTE. LTD.,NW17699N000,10,WOODLANDS INDUSTRIAL PARK E1,NA,757733,1.45334362223108,103.795682402301,supermarketlogo.jpg
NTUC FAIRPRICE CO-OPERATIVE LTD,NW17872B000,1,NORTHPOINT DRIVE,103,768019,1.42799995739162,103.836142036927,supermarketlogo.jpg
NTUC FAIRPRICE CO-OPERATIVE LTD,NW17908L000,676,WOODLANDS DRIVE 71,2,730676,1.43991607901426,103.800701205041,supermarketlogo.jpg
NTUC FAIRPRICE CO-OPERATIVE LTD,NW18091N000,29A,GHIM MOH LINK,1,271029,1.3084928850612,103.784598109774,supermarketlogo.jpg
NTUC FAIRPRICE CO-OPERATIVE LTD,NW18192E000,598,YISHUN RING ROAD,1,768698,1.41799925737436,103.841236466066,supermarketlogo.jpg
SHENG SIONG SUPERMARKET PTE LTD,NW18778K000,573,WOODLANDS DRIVE 16,1,730573,1.43109807068463,103.798507625993,supermarketlogo.jpg
NTUC FAIRPRICE CO-OPERATIVE LTD,S02021B000,510,BISHAN STREET 13,520,570510,1.34888843913817,103.849691986415,supermarketlogo.jpg
NTUC FAIRPRICE CO-OPERATIVE LTD,S02023V000,9,BISHAN PLACE,20,579837,1.35023942729665,103.848477626073,supermarketlogo.jpg
NTUC FAIRPRICE CO-OPERATIVE LTD,S02026N000,90,HOUGANG AVENUE 10,7,538766,1.37231186456868,103.893661619219,supermarketlogo.jpg
NTUC FAIRPRICE CO-OPERATIVE LTD,S02027L000,682,HOUGANG AVENUE 4,310,530682,1.37361830003654,103.88574886332,supermarketlogo.jpg
NTUC FAIRPRICE CO-OPERATIVE LTD,S02028K000,202,HOUGANG STREET 21,0,530202,1.35757558065219,103.884038461279,supermarketlogo.jpg
NTUC FAIRPRICE CO-OPERATIVE LTD,S02029J000,1,HOUGANG STREET 91,1,538692,1.3756672808109,103.879450260083,supermarketlogo.jpg
NTUC FAIRPRICE CO-OPERATIVE LTD,S02034N000,1,PASIR RIS CENTRAL STREET 3,10,518457,1.37244980890777,103.949715696944,supermarketlogo.jpg
NTUC FAIRPRICE CO-OPERATIVE LTD,S02039C000,4,TAMPINES CENTRAL 5,12,529510,1.35267232042901,103.944387982831,supermarketlogo.jpg
NTUC FAIRPRICE CO-OPERATIVE LTD,S02049A000,745,BEDOK RESERVOIR ROAD,3015,470745,1.33740471321143,103.921774737841,supermarketlogo.jpg
SONG FISH DEALER PTE LTD,SE16670X000,750,CHAI CHEE ROAD,9,469000,1.3236517309902,103.922102964585,supermarketlogo.jpg
U STARS PTE. LTD.,NW17212X000,507,YISHUN AVENUE 4,9,760507,1.41517633772651,103.83983039077,supermarketlogo.jpg
SHENG SIONG SUPERMARKET PTE LTD,CE07783P000,88,TANGLIN HALT ROAD,10,141088,1.30203802909961,103.798021747973,supermarketlogo.jpg
L M MEAT PTE. LTD.,SE16607K000,750,CHAI CHEE ROAD,10,469000,1.3236517309902,103.922102964585,supermarketlogo.jpg
SHENG SIONG SUPERMARKET PTE LTD,NE17023N000,258,PASIR RIS STREET 21,10,510258,1.36700053512078,103.964617780128,supermarketlogo.jpg
OH BENG GUAN,SW06322N000,395A,BUKIT BATOK WEST AVENUE 5,10,651395,1.36393821477866,103.751896006132,supermarketlogo.jpg
IROHA INTERNATIONAL PTE. LTD.,CE17F56J000,133,NEW BRIDGE ROAD,11,59413,1.28499883856532,103.844697090786,supermarketlogo.jpg
COLD STORAGE SINGAPORE (1983) PTE LTD,CE05096V000,316B,ANG MO KIO STREET 31,11,563316,1.36462540011123,103.847677043508,supermarketlogo.jpg
COLD STORAGE SINGAPORE (1983) PTE LTD,CE11P32L000,1,SELETAR ROAD,11,807011,1.38739537368097,103.869135979297,supermarketlogo.jpg
COLD STORAGE SINGAPORE (1983) PTE LTD,SE11930L000,112,EAST COAST ROAD,12,428802,1.30523472024853,103.905014934935,supermarketlogo.jpg
CULINA PTE LTD,CE07411A000,8,DEMPSEY ROAD,13,247696,1.30417511894087,103.809526142547,supermarketlogo.jpg
COLD STORAGE SINGAPORE (1983) PTE LTD,S02057A000,181,LORONG 4 TOA PAYOH,602,310181,1.33362232032979,103.8509778648,supermarketlogo.jpg
COLD STORAGE SINGAPORE (1983) PTE LTD,W72014K000,86,REDHILL CLOSE,610,150086,1.28692006435587,103.818673599932,supermarketlogo.jpg
SHENG SIONG SUPERMARKET PTE LTD,SE04069A000,209,NEW UPPER CHANGI ROAD,631,460209,1.32463573239521,103.931068836576,supermarketlogo.jpg
PRIME SUPERMARKET LIMITED,B02027A000,678,WOODLANDS AVENUE 6,716,730678,1.43998365427584,103.801293114431,supermarketlogo.jpg
NG TOH TET,J02016P000,442,JURONG WEST AVENUE 1,756,640442,1.35151847178612,103.719496485079,supermarketlogo.jpg
HAO MART PTE. LTD.,E85090E000,120,POTONG PASIR AVENUE 1,812,350120,1.33545352733956,103.863387984978,supermarketlogo.jpg
CHUA & NG PTE. LTD.,NE08405X000,632,BEDOK RESERVOIR ROAD,824,470632,1.33205094619271,103.914145078086,supermarketlogo.jpg
LOCH GROCER PTE. LTD.,SW09133X000,503,JURONG WEST AVENUE 1,847,640503,1.34995541023414,103.717704811504,supermarketlogo.jpg
TANESEI TRADING PTE. LTD.,SW12J94X000,1,VISTA EXCHANGE GREEN,28,138617,1.30684882667818,103.788214538525,supermarketlogo.jpg
ARCHANA SUPERMARKET PTE. LTD.,SW16856V000,1,JALAN PAPAN,29,619392,1.32048426082957,103.726722841969,supermarketlogo.jpg
COLD STORAGE SINGAPORE (1983) PTE LTD,NW09437C000,468B,ADMIRALTY DRIVE,29,752468,1.45000861248809,103.81411090726,supermarketlogo.jpg
COLD STORAGE SINGAPORE (1983) PTE LTD,C02048E000,144,UPPER BUKIT TIMAH ROAD,1,588177,1.34239284479656,103.776250537642,supermarketlogo.jpg
COLD STORAGE SINGAPORE (1983) PTE LTD,NW15295X000,896,DUNEARN ROAD,1,589472,1.33667572858824,103.783709152299,supermarketlogo.jpg
ISETAN (SINGAPORE) LIMITED?,SW13W88P000,3,GATEWAY DRIVE,1,608532,1.33402529468935,103.74258601505,supermarketlogo.jpg
COLD STORAGE SINGAPORE (1983) PTE LTD,SW05008N000,638,JURONG WEST STREET 61,1,640638,1.34159108250934,103.697020082225,supermarketlogo.jpg
PRIME SUPERMARKET LIMITED,J94081B000,763,JURONG WEST STREET 75,1,640763,1.34872643268225,103.698292007732,supermarketlogo.jpg
SHENG SIONG SUPERMARKET PTE LTD,C02033V000,154A,BUKIT BATOK WEST AVENUE 8,1,651154,1.34737179952411,103.743698115504,supermarketlogo.jpg
COLD STORAGE SINGAPORE (1983) PTE LTD,C02046K000,1,BUKIT BATOK CENTRAL LINK,1,658713,1.3501891589254,103.749021982726,supermarketlogo.jpg
TANESEI RETAILING PTE. LTD.,NE18406E000,2,TAMPINES CENTRAL 5,6,529509,1.3523611297845,103.943784815991,supermarketlogo.jpg
LITTLE FARMS PTE. LTD.,CE16M43E000,7,WALLICH STREET,6,78884,1.27672493204774,103.845155396186,supermarketlogo.jpg
MAHOTA FOOD PTE. LTD.,S02041P000,2,TAMPINES CENTRAL 5,7,529509,1.3523611297845,103.943784815991,supermarketlogo.jpg
SONG FISH DEALER PTE LTD,NE18339P000,2,TAMPINES CENTRAL 5,8,529509,1.3523611297845,103.943784815991,supermarketlogo.jpg
SHENG SIONG SUPERMARKET PTE LTD,SW12M64L000,25,GHIM MOH LINK,11,270025,1.30811886968959,103.786049389035,supermarketlogo.jpg
SHENG SIONG SUPERMARKET PTE LTD,CE12J32X000,2,ANG MO KIO DRIVE,12,567720,1.3778920308286,103.856411982148,supermarketlogo.jpg
ISYMI PTE LTD,NE18066E000,183,JALAN PELIKAT,12,537643,1.35530903339479,103.887857189653,supermarketlogo.jpg
THE SEAFOOD MARKET PLACE (BY SONG FISH) PTE. LTD.,SE18169X000,11,TANJONG KATONG ROAD,15,437157,1.31469214115978,103.894480527876,supermarketlogo.jpg
TOH GUAN MINI MART PTE LTD,SW06002X000,19,TOH GUAN ROAD EAST,65,608568,1.33832657868868,103.753536116977,supermarketlogo.jpg
KADER HASNA MARICAN,J03027B000,17,KIAN TECK LANE,65,627851,1.33314577537318,103.695248113879,supermarketlogo.jpg
"TANG KER AN, TIMOTHY",SE17401C000,18,BEDOK SOUTH ROAD,67,460018,1.3206250589085,103.934734229515,supermarketlogo.jpg
COLD STORAGE SINGAPORE (1983) PTE LTD,B02060V000,256,BANGKIT ROAD,69,670256,1.37904775569569,103.772937487064,supermarketlogo.jpg
MM SUNDRY SHOP PTE.LTD.,NW07726J000,27,WOODLANDS SECTOR 1,70,738252,1.45464654784747,103.804476738376,supermarketlogo.jpg
AL MARCHE PTE LTD,CE09874X000,2,MARINA BOULEVARD,5,18987,1.28076944309971,103.852658565645,supermarketlogo.jpg
COLD STORAGE SINGAPORE (1983) PTE LTD,C02024A000,1,FIFTH AVENUE,5,268802,1.33081740177866,103.795692359115,supermarketlogo.jpg
COLD STORAGE SINGAPORE (1983) PTE LTD,W02066L000,211,HOLLAND AVENUE,5,278967,1.31025542171459,103.795350440968,supermarketlogo.jpg
THE ALASKA GUYS PTE. LTD.,SE12D97J000,201,TELOK KURAU ROAD,5,423910,1.31212247677014,103.911185988113,supermarketlogo.jpg
COLD STORAGE SINGAPORE (1983) PTE LTD,NW08020K000,70,WOODLANDS AVENUE 7,5,738344,1.44053814947729,103.800977588529,supermarketlogo.jpg
SONG FISH DEALER PTE LTD,NW17310P000,930,YISHUN AVENUE 2,5,769098,1.42969848150358,103.835776497586,supermarketlogo.jpg
SHENG SIONG SUPERMARKET PTE LTD,NW15186C000,547,SEGAR ROAD,6,670547,1.3882402152635,103.769575387874,supermarketlogo.jpg
SHENG SIONG SUPERMARKET PTE LTD,CE16913J000,473,FERNVALE STREET,6,790473,1.39779874004409,103.881698809438,supermarketlogo.jpg
COLD STORAGE SINGAPORE (1983) PTE LTD,NE13M11K000,622D,PUNGGOL CENTRAL,6,824622,1.40053114255394,103.91053692695,supermarketlogo.jpg
COLD STORAGE SINGAPORE (1983) PTE LTD,CE11C49E000,26,JALAN MEMBINA,7,161026,1.28263437748971,103.825595755974,supermarketlogo.jpg
COLD STORAGE SINGAPORE (1983) PTE LTD,SW14542A000,4,HILLVIEW RISE,7,667979,1.36267450256161,103.76417292134,supermarketlogo.jpg
COLD STORAGE SINGAPORE (1983) PTE LTD,E02048C000,845,GEYLANG ROAD,8,400845,1.3165446779962,103.894289394701,supermarketlogo.jpg
TANESEI RETAILING PTE. LTD.,SE11A69V000,112,EAST COAST ROAD,9,428802,1.30523472024853,103.905014934935,supermarketlogo.jpg
SHENG SIONG SUPERMARKET PTE LTD,NW17421C000,446,FAJAR ROAD,1,670446,1.38400581939075,103.771029612234,supermarketlogo.jpg
COLD STORAGE SINGAPORE (1983) PTE LTD,J02010E000,475,CHOA CHU KANG AVENUE 3,1,680475,1.37805613765446,103.73893180394,supermarketlogo.jpg
U STARS PTE. LTD.,SW16D52V000,810,CHOA CHU KANG AVENUE 7,1,680810,1.37405796748332,103.746160084444,supermarketlogo.jpg
FORTUNE SUPERMARKET PTE. LTD.,NW15220L000,780,WOODLANDS CRESCENT,1,730780,1.44834154204666,103.801057153449,supermarketlogo.jpg
HAO MART PTE. LTD.,NW16763X000,505,CANBERRA LINK,1,750505,1.45026201712259,103.822534722305,supermarketlogo.jpg
U STARS SUPERMARKET PTE. LTD.,NE16747J000,218,SUMANG WALK,1,820218,1.40322711960687,103.895387026654,supermarketlogo.jpg
SHENG SIONG SUPERMARKET PTE LTD,NE09359K000,301,PUNGGOL CENTRAL,1,820301,1.40371939366127,103.906138013326,supermarketlogo.jpg
ANG MO SUPERMARKET PTE LTD,NE10113B000,639,PUNGGOL DRIVE,1,820639,1.39946117297002,103.916054504161,supermarketlogo.jpg
COLD STORAGE SINGAPORE (1983) PTE LTD,NE15611B000,671,EDGEFIELD PLAINS,1,820671,1.40566047542135,103.911991279242,supermarketlogo.jpg
SHENG SIONG SUPERMARKET PTE LTD,E02140N000,1,JALAN BERSEH,2,209037,1.30778510070706,103.857010987509,supermarketlogo.jpg
SWISS BUTCHERY PTE LTD,CE08808B000,56,TANGLIN ROAD,2,247964,1.30561167116125,103.822962948156,supermarketlogo.jpg
COLD STORAGE SINGAPORE (1983) PTE LTD,CE06464C000,501,BUKIT TIMAH ROAD,2,259760,1.32257317593847,103.814245545298,supermarketlogo.jpg
CP MANAGEMENT SERVICES PRIVATE LIMITED,SE11799C000,80,TANAH MERAH COAST ROAD,2,498820,1.32674394478206,104.003578458884,supermarketlogo.jpg
VINAYAK TRADERS PTE. LTD.,SW14A33P000,27,PENJURU WALK,8/9,608538,1.31923811377776,103.732882480415,supermarketlogo.jpg
TASTE (SINGAPORE) PRIVATE LIMITED,CE17174A000,118,HOLLAND AVENUE,1/10,278997,1.31052978656723,103.796105205941,supermarketlogo.jpg
SHENG SIONG SUPERMARKET PTE LTD,NW16388B000,18,YISHUN AVENUE 9,6/10,768897,1.43303198083989,103.84160082548,supermarketlogo.jpg
PRIME SUPERMARKET (1996) PTE LTD,J02018L000,253,CHOA CHU KANG AVENUE 1,7/10,680253,1.37743962647899,103.744383226701,supermarketlogo.jpg
CAVEMEN PTE. LTD.,CE17A77E000,1,JALAN DUSUN,9/10,329363,1.32696540868721,103.843674239785,supermarketlogo.jpg
COLD STORAGE SINGAPORE (1983) PTE LTD,CE15577J000,442,ORCHARD ROAD,1/11,238879,1.30766861522346,103.828164400669,supermarketlogo.jpg
COLD STORAGE SINGAPORE (1983) PTE LTD,W89166E000,176,ORCHARD ROAD,9/11,238843,1.30197804716068,103.839758898411,supermarketlogo.jpg
PRIME SUPERMARKET (1996) PTE LTD,SW15D03B000,50,"NANYANG AVENUE",1/26,639798,1.3467646554181,103.6788181373,supermarketlogo.jpg
COLD STORAGE SINGAPORE (1983) PTE LTD,SE13S89V000,2,FIRST STREET,5/16,458278,1.31275329888806,103.92365787344,supermarketlogo.jpg
MOHAMAD DAMAR HULAN BIN OSMAN,SE12H46E000,212,CHANGI ROAD,NA,419735,1.31714973629572,103.903965194579,supermarketlogo.jpg
THE FOODSPREE PTE LTD,SE17760J000,162,JOO CHIAT ROAD,1,427437,1.31290445966393,103.899711254654,supermarketlogo.jpg
HAO MART PTE. LTD.,SE06112L000,15,SIGLAP ROAD,1,448912,1.30706067505236,103.923769733617,supermarketlogo.jpg
COLD STORAGE SINGAPORE (1983) PTE LTD,E02047E000,348,BEDOK ROAD,1,469560,1.33142685592296,103.948257061053,supermarketlogo.jpg
SHENG SIONG SUPERMARKET PTE LTD,S02048B000,739A,BEDOK RESERVOIR ROAD,1,471739,1.33824202544731,103.923303938599,supermarketlogo.jpg
COLD STORAGE SINGAPORE (1983) PTE LTD,S02033P000,440,PASIR RIS DRIVE 4,1,510440,1.36899800601439,103.958647646173,supermarketlogo.jpg
SHENG SIONG SUPERMARKET PTE LTD,NE15276N000,527D,PASIR RIS STREET 51,1,514527,1.36968624846978,103.947922430563,supermarketlogo.jpg
COLD STORAGE SINGAPORE (1983) PTE LTD,S02185J000,982,BUANGKOK CRESCENT,1,530982,1.380850346979,103.879309100327,supermarketlogo.jpg
L M MEAT PTE. LTD.,CE07T39B000,10,SINARAN DRIVE,55,307506,1.32042967863542,103.843892126913,supermarketlogo.jpg
FISHOP PTE. LTD.,CE07B77K000,370,ALEXANDRA ROAD,58,159953,1.2886146910195,103.805009970565,supermarketlogo.jpg
HONG HENG SENG,W02076J000,5,BANDA STREET,92,50005,1.2811973776484,103.843437329467,supermarketlogo.jpg
COLD STORAGE SINGAPORE (1983) PTE LTD,C02026X000,2,JURONG EAST STREET 21,100,609601,1.33502430397913,103.746638245311,supermarketlogo.jpg
U STARS SUPERMARKET PTE. LTD.,C02047J000,345,CLEMENTI AVENUE 5,78,120345,1.31770281913597,103.769076732946,supermarketlogo.jpg
KEK HONG HENG,SW11512N000,23,PENJURU WALK,81,608537,1.31800981292651,103.731948910121,supermarketlogo.jpg
LIM KING CHEW,S02025P000,6,HOUGANG AVENUE 3,82,530006,1.36271446207954,103.893980506642,supermarketlogo.jpg
COLD STORAGE SINGAPORE (1983) PTE LTD,E02027N000,80,MARINE PARADE ROAD,84,449269,1.30119131472187,103.905113590458,supermarketlogo.jpg
PRIME SUPERMARKET (1996) PTE LTD,E75097C000,18,BEDOK SOUTH ROAD,87,460018,1.3206250589085,103.934734229515,supermarketlogo.jpg
SHENG SIONG SUPERMARKET PTE LTD,SW11423N000,18,TECK WHYE LANE,95,680018,1.37829768231985,103.754071407342,supermarketlogo.jpg
COLD STORAGE SINGAPORE (1983) PTE LTD,E02045K000,118,ALJUNIED AVENUE 2,100,380118,1.32000040915087,103.887363072166,supermarketlogo.jpg
SHENG SIONG SUPERMARKET PTE LTD,S97079B000,4,LORONG 7 TOA PAYOH,107,310004,1.33904479825353,103.855541071679,supermarketlogo.jpg
MCP FAIRMART PTE LTD,SE04109X000,89,BEDOK NORTH STREET 4,107,460089,1.33233467983413,103.938051292004,supermarketlogo.jpg
ONE EIGHT SHOP PTE. LTD.,C02051P000,104,JURONG EAST STREET 13,110,600104,1.33658465251142,103.737623311665,supermarketlogo.jpg
COLD STORAGE SINGAPORE (1983) PTE LTD,J02021A000,376,BUKIT BATOK STREET 31,116,650376,1.35831704701199,103.749579874348,supermarketlogo.jpg
COLD STORAGE SINGAPORE (1983) PTE LTD,E02033X000,509,BEDOK NORTH STREET 3,121,460509,1.33306648172659,103.931091390123,supermarketlogo.jpg
HAO MART PTE. LTD.,NE16875P000,487B,TAMPINES STREET 45,123,521487,1.3599856700583,103.958247655538,supermarketlogo.jpg
COLD STORAGE SINGAPORE (1983) PTE LTD,NW04014P000,102,YISHUN AVENUE 5,125,760102,1.43061828496815,103.828762985206,supermarketlogo.jpg
COLD STORAGE SINGAPORE (1983) PTE LTD,W74072X000,8,TELOK BLANGAH CRESCENT,171,90008,1.2777953943487,103.819341304521,supermarketlogo.jpg
COLD STORAGE SINGAPORE (1983) PTE LTD,C79031J000,21,GHIM MOH ROAD,177,270021,1.31008118565207,103.788532895746,supermarketlogo.jpg
PRIME SUPERMARKET LIMITED,SW04097K000,159,BUKIT BATOK STREET 11,178,650159,1.34857536716152,103.742708640389,supermarketlogo.jpg
SHENG SIONG SUPERMARKET PTE LTD,B02008E000,845,YISHUN STREET 81,184,760845,1.41601879836322,103.835000770936,supermarketlogo.jpg
COLD STORAGE SINGAPORE (1983) PTE LTD,E02030B000,306,UBI AVENUE 1,185,400306,1.32987219697453,103.901929745106,supermarketlogo.jpg
ANG MO SUPERMARKET PTE LTD,S93171X000,642,HOUGANG AVENUE 8,197,530642,1.37170342503995,103.879938988612,supermarketlogo.jpg
EN FROZEN PTE LTD,SE11317V000,1,GEYLANG SERAI,198,402001,1.31672515166437,103.89797741752,supermarketlogo.jpg
LAURELS FOODS SUPPLIERS PTE LTD,C02031B000,2,PANDAN VALLEY,204,597626,1.32044171174546,103.778972465008,supermarketlogo.jpg
SHENG SIONG SUPERMARKET PTE LTD,B02038P000,925,YISHUN CENTRAL 1,211,760925,1.42750547876461,103.837125285904,supermarketlogo.jpg
SHENG SIONG SUPERMARKET PTE LTD,B02017C000,301,WOODLANDS STREET 31,217,730301,1.43150526868815,103.773515667645,supermarketlogo.jpg
TEO BOBBY,SE05117K000,253,SERANGOON CENTRAL DRIVE,241,550253,1.35367102829776,103.870756830653,supermarketlogo.jpg
SHAHUL HAMEED S/O ABDUSALAM,NE10213X000,280,TAMPINES STREET 22,244,520280,1.34753518989402,103.951702778283,supermarketlogo.jpg
COLD STORAGE SINGAPORE (1983) PTE LTD,SW07070J000,284,BUKIT BATOK EAST AVENUE 3,251,650284,1.3466990504391,103.757276703167,supermarketlogo.jpg
COLD STORAGE SINGAPORE (1983) PTE LTD,E02028L000,266,SERANGOON CENTRAL DRIVE,255,550266,1.35323163805116,103.871472859034,supermarketlogo.jpg
COLD STORAGE SINGAPORE (1983) PTE LTD,SE09608P000,56,MARINE TERRACE,259,440056,1.30560570262798,103.915376080603,supermarketlogo.jpg
SHENG SIONG SUPERMARKET PTE LTD,SE16233J000,18B,CIRCUIT ROAD,260,372018,1.32918105553869,103.888248444761,supermarketlogo.jpg
COLD STORAGE SINGAPORE (1983) PTE LTD,B02039N000,293,YISHUN STREET 22,261,760293,1.4361142481059,103.837605239088,supermarketlogo.jpg
PRIME SUPERMARKET (1996) PTE LTD,J02020B000,142,TECK WHYE LANE,281,680142,1.38079049151902,103.751954418498,supermarketlogo.jpg
TAN CHUAN BOON,S02031V000,309,HOUGANG AVENUE 5,293,530309,1.36620942758889,103.895144898127,supermarketlogo.jpg
SHENG SIONG SUPERMARKET PTE LTD,CE04558K000,108,MCNAIR ROAD,295,321108,1.32161904109972,103.859382727107,supermarketlogo.jpg
PRIME SUPERMARKET LIMITED,J02019K000,962,JURONG WEST STREET 91,300,640962,1.34201783432949,103.691483120672,supermarketlogo.jpg
MCP FAIRMART PTE LTD,SW16H72K000,135,JURONG GATEWAY ROAD,317,600135,1.33375343289468,103.739371389066,supermarketlogo.jpg
SHENG SIONG SUPERMARKET PTE LTD,E03034J000,115,BEDOK NORTH ROAD,319,460115,1.33143368800346,103.936865411478,supermarketlogo.jpg
HAO MART PTE. LTD.,CE12695A000,74,WHAMPOA DRIVE,332,320074,1.32471580637604,103.857752875465,supermarketlogo.jpg
COLD STORAGE SINGAPORE (1983) PTE LTD,SW12G71E000,1,COVE AVENUE,NA,98537,1.2471504063107,103.839555012608,supermarketlogo.jpg
COLD STORAGE SINGAPORE (1983) PTE LTD,C03010C000,1,MARITIME SQUARE,NA,99253,1.26206336450486,103.818625588159,supermarketlogo.jpg
L M MEAT PTE. LTD.,SW13368A000,154,WEST COAST ROAD,14,127371,1.30358269052594,103.76528451751,supermarketlogo.jpg
U STARS PTE. LTD.,SW17728C000,817,KEAT HONG LINK,14,680817,1.3775438427841,103.749700044104,supermarketlogo.jpg
GURU'S MARKETING PTE. LTD.,SW14A98C000,27,PENJURU WALK,15,608538,1.31923811377776,103.732882480415,supermarketlogo.jpg
ISETAN (SINGAPORE) LIMITED?,W02078C000,350,ORCHARD ROAD,0,238868,1.3058097922131,103.831507328438,supermarketlogo.jpg
SHENG SIONG SUPERMARKET PTE LTD,SW12M67E000,420A,CLEMENTI AVENUE 1,1,121420,1.30973331408822,103.768637301316,supermarketlogo.jpg
COLD STORAGE SINGAPORE (1983) PTE LTD,SW12G70J000,101,CLEMENTI ROAD,1,129787,1.30176130745621,103.769369393442,supermarketlogo.jpg
SHENG SIONG SUPERMARKET PTE LTD,CE15J25N000,85,DAWSON ROAD,1,141085,1.29531966854901,103.809758594158,supermarketlogo.jpg
COLD STORAGE SINGAPORE (1983) PTE LTD,W02080P000,252,NORTH BRIDGE ROAD,1,179103,1.29389358752931,103.853119912535,supermarketlogo.jpg
COLD STORAGE SINGAPORE (1983) PTE LTD,W02071X000,391A,ORCHARD ROAD,1,238873,1.30242417909428,103.83467613466,supermarketlogo.jpg
COLD STORAGE SINGAPORE (1983) PTE LTD,S02204N000,260,KIM KEAT AVENUE,1,310260,1.33211277384514,103.857378075733,supermarketlogo.jpg
NTUC FAIRPRICE CO-OPERATIVE LTD,W70029L000,170,STIRLING ROAD,1147,140170,1.29090918346995,103.803107635392,supermarketlogo.jpg
NTUC FAIRPRICE CO-OPERATIVE LTD,W90084A000,133,NEW BRIDGE ROAD,1,59413,1.28499883856532,103.844697090786,supermarketlogo.jpg
COLD STORAGE SINGAPORE (1983) PTE LTD,W02065N000,101,THOMSON ROAD,52,307591,1.31733464253519,103.843463185078,supermarketlogo.jpg
COLD STORAGE SINGAPORE (1983) PTE LTD,S97166P000,21,HOUGANG STREET 51,52,538719,1.37924528806956,103.887832026894,supermarketlogo.jpg
TEO BOBBY,E02072C000,29,CHAI CHEE AVENUE,62,460029,1.32476040694715,103.924370235887,supermarketlogo.jpg
LOH NYEN YIU,W02081N000,5001,BEACH ROAD,64,199588,1.30275121791614,103.865163649373,supermarketlogo.jpg
ARCHANA PROVISION STORES PTE. LTD,SW15051V000,27,PENJURU WALK,6/7,608538,1.31923811377776,103.732882480415,supermarketlogo.jpg
KINGSMART PTE. LTD.,SW07E27X000,30,PENJURU PLACE,6/7,608557,1.31621042313668,103.732527150838,supermarketlogo.jpg
AP HOUSE PTE. LTD.,CE13Z38L000,12,MARINA VIEW,6/8,18961,1.27830730320321,103.850795182002,supermarketlogo.jpg
HAO MART PTE. LTD.,SE06125B000,54,BAYSHORE ROAD,7/8,469979,1.31179544978998,103.936894516324,supermarketlogo.jpg
COLD STORAGE SINGAPORE (1983) PTE LTD,E02026P000,20,EASTWOOD ROAD,7/9,486442,1.3214476908532,103.955419467871,supermarketlogo.jpg
U STARS SUPERMARKET PTE. LTD.,CE15B61K000,330,ANCHORVALE STREET,1,540330,1.39684979447052,103.889246757276,supermarketlogo.jpg
U STARS SUPERMARKET PTE. LTD.,NE17098V000,215C,COMPASSVALE DRIVE,1,543215,1.38977025366003,103.892787164081,supermarketlogo.jpg
PRIME SUPERMARKET (1996) PTE LTD,CE12H94B000,542B,SERANGOON NORTH AVENUE 3,1,552542,1.37368392879254,103.871416983339,supermarketlogo.jpg
SHENG SIONG SUPERMARKET PTE LTD,S02058V000,200,UPPER THOMSON ROAD,1,574424,1.35184498235634,103.836053654084,supermarketlogo.jpg
PHAN NEE INVESTMENTS (S) PTE LTD,NW11577N000,2C,YISHUN AVENUE 7,3,768930,1.44518329012928,103.837963232741,supermarketlogo.jpg
COLD STORAGE SINGAPORE (1983) PTE LTD,CE05039P000,201,YISHUN AVENUE 2,3,769092,1.41738336744103,103.832979911333,supermarketlogo.jpg
GW TRADER PTE. LTD.,CE15023A000,8,SELETAR NORTH LINK,3,797455,1.41833137911794,103.896447890319,supermarketlogo.jpg
PHANG NEE ENTERPRISE PTE. LTD.,SW09426V000,2D,JALAN PAPAN,4,619415,1.32078791294416,103.729751339131,supermarketlogo.jpg
SHENG SIONG SUPERMARKET PTE LTD,NE15211C000,312A,SUMANG LINK,4,821312,1.41081926280608,103.900371678954,supermarketlogo.jpg
FOUR SEASONS ORGANIC MARKET PTE. LTD.,SE10553J000,80,MARINE PARADE ROAD,83A,449269,1.30119131472187,103.905113590458,supermarketlogo.jpg
THE BUTCHER (SINGAPORE) PTE. LTD.,SE05244V000,80,MARINE PARADE ROAD,83B,449269,1.30119131472187,103.905113590458,supermarketlogo.jpg
SHENG SIONG SUPERMARKET PTE LTD,SW07331C000,352,CLEMENTI AVENUE 2,91&99,120352,1.31427860895568,103.771350566042,supermarketlogo.jpg
SHENG SIONG SUPERMARKET PTE LTD,J02009N000,544,JURONG WEST STREET 42,97/99,640544,1.3523935762758,103.715759509791,supermarketlogo.jpg
THNG SAIK MONG,NW06239N000,108,CLEMENTI STREET 11,K1,120108,1.32212393765921,103.770265909205,supermarketlogo.jpg
HAO MART PTE. LTD.,CE17A46V000,222,BISHAN STREET 23,K1,570222,1.35803524250899,103.848208491053,supermarketlogo.jpg
COLD STORAGE SINGAPORE (1983) PTE LTD,S02036K000,9,TAMPINES STREET 32,30,529286,1.35436493617486,103.960042189056,supermarketlogo.jpg
SHENG SIONG SUPERMARKET PTE LTD,NW11702X000,200,WOODLANDS INDUSTRIAL PARK E7,30,757177,1.45074972989745,103.796846522878,supermarketlogo.jpg
MAHOTA FOOD PTE. LTD.,CE16445A000,809,FRENCH ROAD,31,200809,1.30832700959572,103.862005875543,supermarketlogo.jpg
GURU'S MARKETING PTE. LTD.,SW16735N000,1,JALAN PAPAN,31,619392,1.32048426082957,103.726722841969,supermarketlogo.jpg
VINAYAK TRADERS PTE. LTD.,SW16814X000,1,JALAN PAPAN,33,619392,1.32048426082957,103.726722841969,supermarketlogo.jpg
COLD STORAGE SINGAPORE (1983) PTE LTD,B02012N000,768,WOODLANDS AVENUE 6,34,730768,1.44562289934866,103.798140996577,supermarketlogo.jpg
CHENNAI TRADING & SUPERMART PTE. LTD.,SW16921N000,1,JALAN PAPAN,35,619392,1.32048426082957,103.726722841969,supermarketlogo.jpg
AJMAL TRADE MART PTE. LTD.,NW09331A000,23,MANDAI ESTATE,21,729937,1.40631204506347,103.76056171553,supermarketlogo.jpg
L M MEAT PTE. LTD.,SE11D22K000,5,CHANGI BUSINESS PARK CENTRAL 1,23,486038,1.3343251542009,103.962389306789,supermarketlogo.jpg
SHENG SIONG SUPERMARKET PTE LTD,SW14817E000,27,PENJURU WALK,24,608538,1.31923811377776,103.732882480415,supermarketlogo.jpg
SUN TRG & CON PTE LTD,NW17024A000,280,WOODLANDS INDUSTRIAL PARK E5,24,757322,1.45132505304739,103.791095177079,supermarketlogo.jpg
SHENG SIONG SUPERMARKET PTE LTD,W02332N000,52,CHIN SWEE ROAD,25,160052,1.28708278767219,103.841580116173,supermarketlogo.jpg
COLD STORAGE SINGAPORE (1983) PTE LTD,NE16363K000,1,SENGKANG SQUARE,25,545078,1.39209414927783,103.894980035249,supermarketlogo.jpg
COLD STORAGE SINGAPORE (1983) PTE LTD,NW08385B000,604,SEMBAWANG ROAD,25,758459,1.44176714678225,103.824495079721,supermarketlogo.jpg
SONG FISH DEALER PTE LTD,CE14938E000,133,NEW BRIDGE ROAD,26,59413,1.28499883856532,103.844697090786,supermarketlogo.jpg
SONG FISH DEALER PTE LTD,C99107C000,1,JURONG WEST CENTRAL 2,26,648886,1.33983014805774,103.706460886826,supermarketlogo.jpg
COLD STORAGE SINGAPORE (1983) PTE LTD,NE16139A000,259,PASIR RIS STREET 21,27,510259,1.36645363325574,103.964598501334,supermarketlogo.jpg
NG CHAI SENG,W02100V000,109,BUKIT PURMEI ROAD,155,90109,1.27392940817544,103.825310769144,supermarketlogo.jpg
PRIME SUPERMARKET LIMITED,J02017N000,373,BUKIT BATOK STREET 31,248,650373,1.35894636653359,103.750365807136,supermarketlogo.jpg
ANG KEN CHUA,J02008P000,410,CHOA CHU KANG AVENUE 3,341,680410,1.38062798479668,103.741520112804,supermarketlogo.jpg
HAO MART PTE. LTD.,E82118V000,537,BEDOK NORTH STREET 3,555,460537,1.33177301702605,103.924236464013,supermarketlogo.jpg
COLD STORAGE SINGAPORE (1983) PTE LTD,NE07474A000,21,TAMPINES NORTH DRIVE 2,NA,528765,1.37210169537313,103.931999895836,supermarketlogo.jpg
SARATHI STORES PTE LTD,SE12F88V000,91,UPPER PAYA LEBAR ROAD,NA,534821,1.33748492133075,103.887004168998,supermarketlogo.jpg
SIVAMANI MINIMART PTE LTD,SE08722A000,141,UPPER PAYA LEBAR ROAD,NA,534846,1.33888230373418,103.886109258393,supermarketlogo.jpg
HAO MART PTE. LTD.,CE12V01C000,16,JALAN KURAS,NA,577729,1.3730794666261,103.829630867108,supermarketlogo.jpg
ALTERNATIVE SELECTION PTE. LTD.,NW15264K000,29,BINJAI PARK,NA,589831,1.33661474902075,103.786969223738,supermarketlogo.jpg
TUAS SOUTH MINIMART PTE. LTD.,SW16126J000,6,TUAS SOUTH STREET 15,NA,636906,1.27067712305135,103.636144795044,supermarketlogo.jpg
NPS IMPEX PTE. LTD,SW15681P000,21,TUAS VIEW SQUARE,NA,637640,1.29895146739633,103.627517906632,supermarketlogo.jpg
COLD STORAGE SINGAPORE (1983) PTE LTD,J03056N000,492,JURONG WEST STREET 41,NA,640492,1.35011243012885,103.724598702353,supermarketlogo.jpg
SHENG SIONG SUPERMARKET PTE LTD,SW07209E000,7,JURONG WEST AVENUE 5,NA,649486,1.34878489456242,103.703415655686,supermarketlogo.jpg
COLD STORAGE SINGAPORE (1983) PTE LTD,J02011C000,464,UPPER BUKIT TIMAH ROAD,NA,678077,1.36012370572957,103.76754238699,supermarketlogo.jpg
GOWRI'S GLOBAL MARKETING PTE. LTD.,NW16252K000,460,MANDAI ROAD,NA,729760,1.41072219413685,103.76839596811,supermarketlogo.jpg
BALASUBRAMANIYAN KANNADASAN,J87134E000,257,KRANJI ROAD,NA,739503,1.43594535916514,103.754008429832,supermarketlogo.jpg
AJMAL TRADE MART PTE. LTD.,SW12L48X000,12,KRANJI ROAD,NA,739522,1.43069358938447,103.759237297885,supermarketlogo.jpg
DE ESPERTO MINIMART PTE. LTD.,NW14006E000,190,WOODLANDS INDUSTRIAL PARK E7,NA,757178,1.45122063631724,103.797853420673,supermarketlogo.jpg
PHAN NEE TRADING LLP,NW10192C000,49,ADMIRALTY ROAD WEST,NA,757444,1.46138853767873,103.818111275279,supermarketlogo.jpg
BANGLADESH SUPER MARKET PTE. LTD.,B90051N000,1024,SEMBAWANG ROAD,NA,758498,1.45343693357051,103.832526372151,supermarketlogo.jpg
LABIBA ENTERPRISE PTE. LTD.,CE13S05E000,249,JALAN KAYU,NA,799473,1.39657415558799,103.872851581637,supermarketlogo.jpg
COLD STORAGE SINGAPORE (1983) PTE LTD,NE06429X000,266,COMPASSVALE BOW,2,540266,1.38199703135061,103.897031078181,supermarketlogo.jpg
SHAFEN SUPERMARKET & TRADING (S) PTE. LTD.,SW14017K000,18,TOH GUAN ROAD EAST,2,608596,1.33641798055282,103.751807387865,supermarketlogo.jpg
YS LOGISTICS (S) PTE. LTD.,SW11146X000,15,JALAN TEPONG,2,619336,1.30859346145721,103.722316838638,supermarketlogo.jpg
MALAR MARKETING PTE. LTD.,SW16H70N000,69,TUAS SOUTH AVENUE 1,2,637589,1.31335809677308,103.627436995081,supermarketlogo.jpg
SADIA SUPERMARKET & TRADING (S) PTE. LTD.,SW09288C000,14,TECH PARK CRESCENT,2,638118,1.31069428534009,103.630190017208,supermarketlogo.jpg
GOWRI'S GLOBAL MARKETING PTE. LTD.,SW08907C000,555,UPPER JURONG ROAD,2,638368,1.32888600553213,103.677129986961,supermarketlogo.jpg
KAVI TRADERS PTE. LTD.,SW16B85N000,69R,TUAS SOUTH AVENUE 1,2,639926,1.31332235103777,103.627916988491,supermarketlogo.jpg
BISMILLAH MINIMART PTE. LTD.,NW13J23J000,32,MANDAI ESTATE,2,729939,1.40754324060913,103.758094978446,supermarketlogo.jpg
FORTUNE SUPERMARKET PTE. LTD.,NW14040B000,463,SEMBAWANG DRIVE,2,750463,1.45551208276585,103.814540291548,supermarketlogo.jpg
COLD STORAGE SINGAPORE (1983) PTE LTD,NW07636K000,406A,SEMBAWANG DRIVE,2,751406,1.45273623395178,103.817249280953,supermarketlogo.jpg
PRIME SUPERMARKET LIMITED,S02127E000,108,PUNGGOL FIELD,2,820108,1.39652617622188,103.908850766913,supermarketlogo.jpg
U STARS SUPERMARKET PTE. LTD.,NE15440C000,261,PUNGGOL WAY,2,820261,1.40541353593882,103.896823897364,supermarketlogo.jpg
COLD STORAGE SINGAPORE (1983) PTE LTD,B02026B000,445,FAJAR ROAD,536,670445,1.38358044412737,103.770768312339,supermarketlogo.jpg
HAO MART PTE. LTD.,NW16634L000,205,PETIR ROAD,595,670205,1.3734302528997,103.773924087036,supermarketlogo.jpg
PRIME SUPERMARKET (1996) PTE LTD,NW12G73N000,761,YISHUN STREET 72,348,760761,1.42539842085522,103.83325904408,supermarketlogo.jpg
SHENG SIONG SUPERMARKET PTE LTD,NE15002X000,506,TAMPINES CENTRAL 1,361,520506,1.35590218547803,103.945912189651,supermarketlogo.jpg
COLD STORAGE SINGAPORE (1983) PTE LTD,NE09314N000,776,PASIR RIS STREET 71,412,510776,1.37454928671824,103.937088181626,supermarketlogo.jpg
COLD STORAGE SINGAPORE (1983) PTE LTD,B92077A000,418,YISHUN AVENUE 11,433,760418,1.42489931802522,103.847249793129,supermarketlogo.jpg
PRIME SUPERMARKET LIMITED,E02041X000,25A,CHAI CHEE ROAD,459,461025,1.32328960172887,103.924149642486,supermarketlogo.jpg
SHENG SIONG SUPERMARKET PTE LTD,E02032V000,539A,BEDOK NORTH STREET 3,477,461539,1.3324023017993,103.925500600051,supermarketlogo.jpg
HAO MART PTE. LTD.,SE17500A000,69,BEDOK SOUTH AVENUE 3,484,460069,1.31935027280391,103.94363236217,supermarketlogo.jpg
PRIME SUPERMARKET (1996) PTE LTD,NE11529V000,159A,HOUGANG STREET 11,1,531159,1.35209059885687,103.879314599056,supermarketlogo.jpg
PRIME SUPERMARKET LIMITED,S02151E000,263,COMPASSVALE STREET,1,540263,1.39484815593414,103.896042269736,supermarketlogo.jpg
COLD STORAGE SINGAPORE (1983) PTE LTD,B02037X000,883,WOODLANDS STREET 82,498,730883,1.44275332239793,103.79054802026,supermarketlogo.jpg
COLD STORAGE SINGAPORE (1983) PTE LTD,B02032E000,161,ANG MO KIO AVENUE 4,504,560161,1.374239506746,103.839489194952,supermarketlogo.jpg
COLD STORAGE SINGAPORE (1983) PTE LTD,SE16595E000,2,JALAN LOKAM,37,537846,1.34560771369918,103.882695852672,supermarketlogo.jpg
D-RON INVESTMENTS PTE. LTD.,CE15042P000,2,SELETAR NORTH LINK,38,797601,1.41690780081275,103.896018766281,supermarketlogo.jpg
AJMAL SUPER MART PTE. LTD.,SW14718K000,70,TUAS SOUTH AVENUE 1,40,637285,1.31396452002226,103.625764663231,supermarketlogo.jpg
COLD STORAGE SINGAPORE (1983) PTE LTD,W02079B000,1,CLAYMORE DRIVE,41,229594,1.30756237263162,103.829352202761,supermarketlogo.jpg
SONG FISH DEALER PTE LTD,SW17592A000,50,JURONG GATEWAY ROAD,43,608549,1.33320021671365,103.743170430901,supermarketlogo.jpg
COLD STORAGE SINGAPORE (1983) PTE LTD,W02064P000,36A,DUNEARN ROAD,44,309426,1.31617742511297,103.83781497569,supermarketlogo.jpg
COLD STORAGE SINGAPORE (1983) PTE LTD,CE10K82J000,2,BAYFRONT AVENUE,46,18972,1.28355872540744,103.858505749339,supermarketlogo.jpg
NG LIAN TEE,CE09902A000,7,GREENDALE AVENUE,NA,289504,1.33166477553301,103.80703380493,supermarketlogo.jpg
TAN PAK NANG,SE06465L000,387,UPPER ALJUNIED ROAD,NA,367872,1.33312323989581,103.878841903145,supermarketlogo.jpg
HAO MART PTE. LTD.,CE11B47P000,32,LORONG 11 GEYLANG,NA,388724,1.31346903905925,103.877004750675,supermarketlogo.jpg
PRB TRADING PTE. LTD.,CE10085L000,230,GEYLANG ROAD,NA,389290,1.31208877136103,103.877389270673,supermarketlogo.jpg
SHENG SIONG SUPERMARKET PTE LTD,CE12546B000,301,GEYLANG ROAD,NA,389344,1.3127205532191,103.878641503568,supermarketlogo.jpg
I-TEC SUPERMART PTE LTD,SE11136C000,498/500,GEYLANG ROAD,NA,389456,1.31328861546158,103.885153154008,supermarketlogo.jpg
YEO HOCK HENG,CE09744N000,5,ALJUNIED ROAD,NA,389797,1.31357605426931,103.881877796975,supermarketlogo.jpg
AZ SUPERMART PTE. LTD.,NE04109P000,21,KAKI BUKIT AVENUE 3,NA,415920,1.33809673913723,103.909946665207,supermarketlogo.jpg
FOODIE MARKET PLACE PTE. LTD.,SE15043B000,313,TANJONG KATONG ROAD,NA,437096,1.30608636797175,103.89614964274,supermarketlogo.jpg
ZAC MEAT & POULTRY PTE LTD,SE14C27C000,1B,FIGARO STREET,NA,458322,1.31574933269594,103.925857026336,supermarketlogo.jpg
